SiteID	SiteCode	SiteName	Latitude	Longitude	MINLON	MAXLON	MINLAT	MAXLAT	LatLongDat	Elevation_	VerticalDa	LocalX	LocalY	LocalProje	PosAccurac	State	County	Comments	HUC8	DrainageAr
1.0	02156500	BROAD RIVER NEAR CARLISLE, S. C.	34.5961	-81.4222	-82.60693	-81.18798	34.56971	35.64287	3.0	None	None	None	None	None	None	SC	None	Catchment outlet location	03050106	7226.1
2.0	01567000	JUNIATA RIVER AT NEWPORT, PA.	40.4783	-77.1294	-78.89779	-77.03309	39.82386	40.83454	3.0	None	None	None	None	None	None	PA	None	Catchment outlet location	02050304	8686.9
3.0	01610000	POTOMAC R AT PAW PAW, WV	39.5389	-78.4567	-79.66851	-78.34954	38.36577	39.98051	3.0	None	None	None	None	None	None	MD	None	Catchment outlet location	02070003	8052.3
4.0	01531000	CHEMUNG RIVER AT CHEMUNG NY	42.0022	-76.635	-77.91462	-76.59983	41.59442	42.64259	3.0	None	None	None	None	None	None	NY	None	Catchment outlet location	02050105	6490.5
5.0	06810000	Nishnabotna River above Hamburg, IA	40.6325	-95.6256	-95.70476	-94.61909	40.57071	42.06047	3.0	None	None	None	None	None	None	IA	None	Catchment outlet location	10240004	7267.5
6.0	03253500	LICKING RIVER AT CATAWBA, KY.	38.7103	-84.3108	-84.61074	-82.86686	37.46589	38.73902	3.0	None	None	None	None	None	None	KY	None	Catchment outlet location	05100101	8547.0
7.0	10301500	WALKER R NR WABUSKA, NV	39.1528	-119.0972	-119.66498	-118.65847	38.01175	39.25989	3.0	None	None	None	None	None	None	NV	None	Catchment outlet location	16050303	6734.0
8.0	02116500	YADKIN RIVER AT YADKIN COLLEGE N C	35.8567	-80.3861	-81.67791	-80.05483	35.82367	36.69271	3.0	None	None	None	None	None	None	NC	None	Catchment outlet location	03040101	5905.2
9.0	06908000	BLACKWATER RIVER AT BLUE LICK, MISSOURI	38.9922	-93.1967	-94.13001	-93.15266	38.5502	39.15261	3.0	None	None	None	None	None	None	MO	None	Catchment outlet location	10300104	2900.8
10.0	03274000	G MIAMI R AT HAMILTON OH	39.3911	-84.5722	-84.9107	-83.53758	39.23644	40.59706	3.0	None	None	None	None	None	None	OH	None	Catchment outlet location	05080002	9401.7
11.0	03455000	FRENCH BROAD RIVER NEAR NEWPORT, TN	35.9817	-83.1611	-83.18721	-82.24736	35.04061	36.08461	3.0	None	None	None	None	None	None	TN	None	Catchment outlet location	06010105	4812.2
12.0	03070000	CHEAT RIVER AT ROWLESBURG, WV	39.3467	-79.6656	-80.01565	-79.27993	38.42823	39.50973	3.0	None	None	None	None	None	None	WV	None	Catchment outlet location	05020004	2426.8
13.0	01608500	SOUTH BRANCH POTOMAC RIVER NEAR SPRINGFIELD, WV	39.4469	-78.6544	-79.66851	-78.54118	38.36577	39.52642	3.0	None	None	None	None	None	None	WV	None	Catchment outlet location	02070001	3809.9
14.0	07183000	NEOSHO R NR IOLA, KS	37.8908	-95.4306	-97.44072	-95.13024	37.83616	38.88433	3.0	None	None	None	None	None	None	KS	None	Catchment outlet location	11070204	9888.6
15.0	10312000	CARSON RIVER NEAR FORT CHURCHILL, NV	39.2917	-119.3111	-120.01076	-119.28753	38.33253	39.45569	3.0	None	None	None	None	None	None	NV	None	Catchment outlet location	16050202	3372.2
16.0	07348000	TWELVEMILE BAYOU NEAR DIXIE, LA	32.6458	-93.8778	-95.37693	-93.79135	32.49102	33.24757	3.0	None	None	None	None	None	None	LA	None	Catchment outlet location	11140304	8124.8
17.0	03365500	EAST FORK WHITE RIVER AT SEYMOUR IND	38.9825	-85.8992	-86.18966	-85.19148	38.95732	40.08047	3.0	None	None	None	None	None	None	IN	None	Catchment outlet location	05120206	6063.2
18.0	02339500	CHATTAHOOCHEE RIVER AT WEST POINT, GA.	32.8861	-85.1822	-85.43564	-83.3918	32.82415	34.843	3.0	None	None	None	None	None	None	GA	None	Catchment outlet location	03130002	9194.5
19.0	03251500	LICKING RIVER AT MCKINNEYSBURG, KY.	38.5978	-84.2667	-84.34412	-82.86686	37.46589	38.69736	3.0	None	None	None	None	None	None	KY	None	Catchment outlet location	05100101	6024.3
20.0	06897500	GRAND RIVER NEAR GALLATIN MO	39.9269	-93.9425	-94.72575	-93.86921	39.68335	41.03981	3.0	None	None	None	None	None	None	MO	None	Catchment outlet location	10280101	5827.5
21.0	05520500	KANKAKEE RIVER AT MOMENCE, IL	41.16	-87.6686	-87.75865	-85.87311	40.94157	41.80227	3.0	None	None	None	None	None	None	IL	None	Catchment outlet location	07120001	5941.5
22.0	03168000	NEW RIVER AT ALLISONIA, VA	36.9375	-80.7458	-81.75287	-80.37142	36.1036	37.07262	3.0	None	None	None	None	None	None	VA	None	Catchment outlet location	05050001	5703.2
23.0	01503000	SUSQUEHANNA RIVER AT CONKLIN NY	42.0353	-75.8033	-75.98576	-74.55848	41.80272	42.99253	3.0	None	None	None	None	None	None	NY	None	Catchment outlet location	02050101	5780.9
24.0	03214000	TUG FORK NEAR KERMIT, WV	37.8175	-82.3889	-82.46109	-81.29627	37.09095	37.88916	3.0	None	None	None	None	None	None	WV	None	Catchment outlet location	05070201	3076.9
25.0	09292500	YELLOWSTONE RIVER NEAR ALTONAH, UTAH	40.5119	-110.3408	-110.52755	-110.27509	40.48638	40.80967	3.0	None	None	None	None	None	None	UT	None	Catchment outlet location	14060003	341.9
26.0	03451500	FRENCH BROAD RIVER AT ASHEVILLE, N. C.	35.6092	-82.5786	-83.00808	-82.24736	35.04061	35.768	3.0	None	None	None	None	None	None	NC	None	Catchment outlet location	06010105	2447.6
27.0	03069500	CHEAT RIVER NEAR PARSONS, WV	39.1222	-79.6806	-80.01565	-79.27993	38.42823	39.23061	3.0	None	None	None	None	None	None	WV	None	Catchment outlet location	05020004	1859.6
28.0	03364000	EAST FORK WHITE RIVER AT COLUMBUS, IND.	39.2	-85.9256	-86.18966	-85.19148	39.14895	40.08047	3.0	None	None	None	None	None	None	IN	None	Catchment outlet location	05120205	4421.1
29.0	14321000	UMPQUA RIVER NEAR ELKTON, OREG.	43.5861	-123.5542	-123.89766	-121.95797	42.67916	43.63985	3.0	None	None	None	None	None	None	OR	None	Catchment outlet location	17100303	9539.0
30.0	03465500	NOLICHUCKY RIVER AT EMBREEVILLE, TN	36.1764	-82.4575	-82.64563	-81.84326	35.68217	36.25125	3.0	None	None	None	None	None	None	TN	None	Catchment outlet location	06010108	2085.0
31.0	06813000	TARKIO RIVER AT FAIRFAX MO	40.3389	-95.4089	-95.50062	-95.0232	40.22493	41.21478	3.0	None	None	None	None	None	None	MO	None	Catchment outlet location	10240005	1315.7
32.0	05518000	KANKAKEE RIVER AT SHELBY, IN	41.1828	-87.3425	-87.29622	-85.87311	41.10404	41.80227	3.0	None	None	None	None	None	None	IN	None	Catchment outlet location	07120001	4607.6
33.0	01649500	NE B ANACOSTIA R AT RIVERDALE, MD	38.9603	-76.9261	-77.0231	-76.79146	38.92401	39.13898	3.0	None	None	None	None	None	None	MD	None	Catchment outlet location	02070010	188.6
34.0	06606600	Little Sioux River at Correctionville, IA	42.4722	-95.7969	-95.94638	-94.82323	42.38709	43.71021	3.0	None	None	None	None	None	None	IA	None	Catchment outlet location	10230003	6475.0
35.0	03448000	FRENCH BROAD RIVER AT BENT CREEK N C	35.5019	-82.5925	-83.00808	-82.28902	35.04061	35.59302	3.0	None	None	None	None	None	None	NC	None	Catchment outlet location	06010105	1750.8
36.0	01512500	CHENANGO RIVER NEAR CHENANGO FORKS NY	42.2181	-75.8486	-76.28572	-75.30003	42.11933	42.9717	3.0	None	None	None	None	None	None	NY	None	Catchment outlet location	02050102	3841.0
37.0	01631000	S F SHENANDOAH RIVER AT FRONT ROYAL, VA	38.9139	-78.2111	-79.33522	-78.14958	37.86168	38.96818	3.0	None	None	None	None	None	None	VA	None	Catchment outlet location	02070005	4252.8
38.0	08033500	NECHES RIVER NEAR ROCKLAND, TEX.	31.0247	-94.3986	-95.94125	-94.35983	30.82044	32.56017	3.0	None	None	None	None	None	None	TX	None	Catchment outlet location	12020003	9417.2
39.0	02486000	PEARL RIVER AT JACKSON, MS	30.4042	-91.0267	-90.26525	-88.76298	32.19939	33.40588	3.0	None	None	None	None	None	None	MS	None	Catchment outlet location	03180002	8212.9
40.0	04183500	MAUMEE R AT ANTWERP OH	41.1989	-84.7444	-85.35229	-84.21663	40.36959	41.91352	3.0	None	None	None	None	None	None	OH	None	Catchment outlet location	04100005	5514.1
41.0	06820500	PLATTE RIVER NEAR AGENCY, MO.	39.6886	-94.7042	-94.97988	-94.26082	39.63336	41.18145	3.0	None	None	None	None	None	None	MO	None	Catchment outlet location	10240012	4558.4
42.0	09444500	SAN FRANCISCO RIVER AT CLIFTON, ARIZ.	33.0494	-109.2953	-109.42356	-108.35039	32.96259	34.09824	3.0	None	None	None	None	None	None	AZ	None	Catchment outlet location	15040004	7163.9
43.0	09497500	SALT RIVER NEAR CHRYSOTILE, ARIZ. MILE 34.8	33.7981	-110.4992	-110.68586	-109.15443	33.33752	34.33987	3.0	None	None	None	None	None	None	AZ	None	Catchment outlet location	15060103	7378.9
44.0	05484500	Raccoon River at Van Meter, IA	41.5339	-93.9497	-95.32827	-93.90099	41.44565	43.02291	3.0	None	None	None	None	None	None	IA	None	Catchment outlet location	07100006	8912.2
45.0	01520500	TIOGA RIVER AT LINDLEY NY	42.0286	-77.1325	-77.76881	-76.81646	41.59442	42.13017	3.0	None	None	None	None	None	None	NY	None	Catchment outlet location	02050104	1996.9
46.0	02387500	OOSTANAULA RIVER AT RESACA, GA.	34.5783	-84.9414	-85.0982	-84.17084	34.26559	35.17628	3.0	None	None	None	None	None	None	GA	None	Catchment outlet location	03150103	4149.2
47.0	02475000	LEAF RIVER NR MCLAIN, MS	31.1028	-88.8083	-89.86531	-88.70466	31.04958	32.38104	3.0	None	None	None	None	None	None	MS	None	Catchment outlet location	03170005	9052.1
48.0	01668000	RAPPAHANNOCK RIVER NEAR FREDERICKSBURG, VA	38.3222	-77.5181	-78.54369	-77.49968	38.09914	38.91402	3.0	None	None	None	None	None	None	VA	None	Catchment outlet location	02080104	4133.6
49.0	07363500	SALINE RIVER NEAR RYE, ARK.	33.7008	-92.0258	-93.13146	-91.95831	33.62417	34.87648	3.0	None	None	None	None	None	None	AR	None	Catchment outlet location	08040204	5444.2
50.0	14113000	KLICKITAT RIVER NEAR PITT, WASH.	45.7567	-121.2089	-121.52721	-120.59985	45.66201	46.53521	3.0	None	None	None	None	None	None	WA	None	Catchment outlet location	17070106	3359.2
51.0	05517500	KANKAKEE RIVER AT DUNNS BRIDGE, IND.	41.2214	-86.9644	-86.95044	-85.87311	41.12071	41.80227	3.0	None	None	None	None	None	None	IN	None	Catchment outlet location	07120001	3501.7
52.0	03528000	CLINCH RIVER ABOVE TAZEWELL, TN	36.425	-83.3983	-83.42468	-81.38083	36.37373	37.25943	3.0	None	None	None	None	None	None	TN	None	Catchment outlet location	06010205	3817.7
53.0	06884500	L BLUE R AT WATERVILLE, KS	39.7778	-96.8611	-99.16254	-96.78125	39.67918	40.70653	3.0	None	None	None	None	None	None	KS	None	Catchment outlet location	10270207	9088.3
54.0	07147800	WALNUT R AT WINFIELD, KS	37.2242	-96.9944	-97.31156	-96.48836	37.19043	38.15945	3.0	None	None	None	None	None	None	KS	None	Catchment outlet location	11030018	4869.2
55.0	03237500	OHIO BRUSH C NR WEST UNION OH	38.8036	-83.4211	-83.78171	-83.24596	38.76984	39.20562	3.0	None	None	None	None	None	None	OH	None	Catchment outlet location	05090201	1002.3
56.0	05454500	Iowa River at Iowa City, IA	41.6567	-91.5408	-93.89517	-91.35556	41.62063	43.28953	3.0	None	None	None	None	None	None	IA	None	Catchment outlet location	07080209	8471.9
57.0	03363000	DRIFTWOOD RIVER NEAR EDINBURGH IND	39.3392	-85.9864	-86.18966	-85.24147	39.33226	40.08047	3.0	None	None	None	None	None	None	IN	None	Catchment outlet location	05120204	2745.4
58.0	07243500	DEEP FORK NEAR BEGGS, OK	35.6739	-96.0683	-97.65318	-96.02176	35.39905	35.98063	3.0	None	None	None	None	None	None	OK	None	Catchment outlet location	11100303	5226.6
59.0	06884400	L BLUE R NR BARNES, KS	39.7758	-96.8581	-99.16254	-96.78125	39.67918	40.70653	3.0	None	None	None	None	None	None	KS	None	Catchment outlet location	10270207	8609.2
60.0	03165500	NEW RIVER AT IVANHOE, VA	36.8347	-80.9528	-81.75287	-80.7047	36.1036	36.86432	3.0	None	None	None	None	None	None	VA	None	Catchment outlet location	05050001	3470.6
61.0	05430500	ROCK RIVER AT AFTON, WI	42.6092	-89.0706	-89.62085	-88.20607	42.58714	43.79362	3.0	None	None	None	None	None	None	WI	None	Catchment outlet location	07090001	8650.6
62.0	01559000	JUNIATA RIVER AT HUNTINGDON, PA.	40.4847	-78.0192	-78.60201	-77.82879	40.19464	40.83454	3.0	None	None	None	None	None	None	PA	None	Catchment outlet location	02050302	2113.4
63.0	06890500	DELAWARE R AT VALLEY FALLS, KS	39.3508	-95.4544	-96.00888	-95.30648	39.26259	39.94415	3.0	None	None	None	None	None	None	KS	None	Catchment outlet location	10270103	2388.0
64.0	03213000	TUG FORK AT LITWAR, WV	37.4856	-81.8439	-81.89868	-81.29627	37.09095	37.54338	3.0	None	None	None	None	None	None	WV	None	Catchment outlet location	05070201	1305.4
65.0	02349500	FLINT RIVER AT MONTEZUMA, GA.	32.2981	-84.0439	-84.81074	-83.87922	32.20758	33.68485	3.0	None	None	None	None	None	None	GA	None	Catchment outlet location	03130006	7511.0
66.0	01127000	QUINEBAUG R AT JEWETT CITY, CT	41.5978	-71.9847	-72.26121	-71.67963	41.47855	42.30176	3.0	None	None	None	None	None	None	CT	None	Catchment outlet location	01100001	1846.7
67.0	05422000	Wapsipinicon River near De Witt, IA	41.7669	-90.5347	-92.72036	-90.50154	41.55397	43.58948	3.0	None	None	None	None	None	None	IA	None	Catchment outlet location	07080103	6034.7
68.0	02414500	TALLAPOOSA RIVER AT WADLEY AL	33.1167	-85.5608	-85.87307	-84.89573	33.09494	33.95148	3.0	None	None	None	None	None	None	AL	None	Catchment outlet location	03150109	4338.3
69.0	01606500	SO. BRANCH POTOMAC RIVER NR PETERSBURG, WV	38.9911	-79.1761	-79.66851	-79.02443	38.3741	39.20147	3.0	None	None	None	None	None	None	WV	None	Catchment outlet location	02070001	1662.8
70.0	01562000	RAYSTOWN BRANCH JUNIATA RIVER AT SAXTON, PA.	40.2158	-78.2656	-78.89779	-78.11208	39.82386	40.39295	3.0	None	None	None	None	None	None	PA	None	Catchment outlet location	02050303	1958.0
71.0	04191500	AUGLAIZE R NR DEFIANCE OH	41.2375	-84.3992	-85.01485	-83.35844	40.42791	41.23446	3.0	None	None	None	None	None	None	OH	None	Catchment outlet location	04100007	6003.6
72.0	02478500	CHICKASAWHAY RIVER AT LEAKESVILLE, MS	31.1483	-88.5478	-89.27374	-88.36305	31.06208	32.76431	3.0	None	None	None	None	None	None	MS	None	Catchment outlet location	03170003	6967.1
73.0	07340000	LITTLE RIVER NEAR HORATIO, ARK.	33.9194	-94.3875	-95.39937	-94.18039	33.80347	34.71416	3.0	None	None	None	None	None	None	AR	None	Catchment outlet location	11140109	6894.6
74.0	03184000	GREENBRIER RIVER AT HILLDALE, WV	37.64	-80.8053	-80.89884	-79.54655	37.48672	38.75152	3.0	None	None	None	None	None	None	WV	None	Catchment outlet location	05050003	4193.2
75.0	07290000	BIG BLACK RIVER NR BOVINA, MS	32.3475	-90.6967	-90.83183	-89.04627	32.29105	33.70999	3.0	None	None	None	None	None	None	MS	None	Catchment outlet location	08060202	7283.1
76.0	03054500	TYGART VALLEY RIVER AT PHILIPPI, WV	39.15	-80.0403	-80.39476	-79.72569	38.42823	39.25561	3.0	None	None	None	None	None	None	WV	None	Catchment outlet location	05020001	2372.4
77.0	03065000	DRY FORK AT HENDRICKS, WV	39.0722	-79.6222	-79.80735	-79.28409	38.64487	39.10563	3.0	None	None	None	None	None	None	WV	None	Catchment outlet location	05020004	893.6
78.0	08055500	ELM FORK TRINITY RIVER NR CARROLLTON, TX	32.9658	-96.9442	-97.84928	-96.6678	32.89511	33.75164	3.0	None	None	None	None	None	None	TX	None	Catchment outlet location	12030103	6368.8
79.0	11501000	SPRAGUE RIVER NEAR CHILOQUIN,OREG.	42.5847	-121.8486	-121.88546	-120.65398	42.17775	42.89681	3.0	None	None	None	None	None	None	OR	None	Catchment outlet location	18010202	4092.2
80.0	03603000	DUCK RIVER ABOVE HURRICANE MILLS, TENN.	35.93	-87.7431	-87.79481	-85.94677	35.2989	36.12627	3.0	None	None	None	None	None	None	TN	None	Catchment outlet location	06040003	6622.6
81.0	03381500	LITTLE WABASH RIVER AT CARMI, IL	38.0611	-88.1597	-88.91839	-87.96187	37.92415	39.50557	3.0	None	None	None	None	None	None	IL	None	Catchment outlet location	05120114	8034.2
82.0	03252500	SF LICKING R AT CYNTHIANA KY	38.3908	-84.3031	-84.46494	-83.8667	37.94498	38.41824	3.0	None	None	None	None	None	None	KY	None	Catchment outlet location	05100102	1608.4
83.0	14359000	ROGUE RIVER AT RAYGOLD NR CENTRAL PT,OREG.	42.4375	-122.9861	-123.07696	-122.12044	42.00427	43.15659	3.0	None	None	None	None	None	None	OR	None	Catchment outlet location	17100308	5317.3
84.0	02387000	CONASAUGA RIVER AT TILTON, GA.	34.6667	-84.9283	-85.0982	-84.47912	34.61553	35.17628	3.0	None	None	None	None	None	None	GA	None	Catchment outlet location	03150101	1779.3
85.0	01611500	CACAPON RIVER NEAR GREAT CACAPON, WV	39.5786	-78.3094	-78.99362	-78.27039	38.78653	39.60974	3.0	None	None	None	None	None	None	WV	None	Catchment outlet location	02070003	1753.4
86.0	13302500	SALMON RIVER AT SALMON ID	45.1833	-113.8944	-115.20739	-113.43016	43.76648	45.25209	3.0	None	None	None	None	None	None	ID	None	Catchment outlet location	17060203	9738.4
87.0	03164000	NEW RIVER NEAR GALAX, VA	36.6472	-80.9792	-81.75287	-80.89217	36.1036	36.78517	3.0	None	None	None	None	None	None	VA	None	Catchment outlet location	05050001	2929.3
88.0	02375500	ESCAMBIA RIVER NEAR CENTURY, FL	30.965	-87.2342	-87.59363	-85.62478	30.92029	32.16426	3.0	None	None	None	None	None	None	FL	None	Catchment outlet location	03140305	9886.0
89.0	06899500	THOMPSON RIVER AT TRENTON MO	40.0794	-93.6442	-94.50079	-93.40679	40.02079	41.38142	3.0	None	None	None	None	None	None	MO	None	Catchment outlet location	10280102	4325.3
90.0	02236000	ST. JOHNS RIVER NR DELAND, FLA.	29.0081	-81.3828	-81.79456	-80.54642	27.59999	29.17308	3.0	None	None	None	None	None	None	FL	None	Catchment outlet location	03080101	7951.3
91.0	06913500	MARAIS DES CYGNES R NR OTTAWA, KS	38.6167	-95.2569	-96.238	-95.21483	38.3044	38.91098	3.0	None	None	None	None	None	None	KS	None	Catchment outlet location	10290101	3237.5
92.0	03183500	GREENBRIER RIVER AT ALDERSON, WV	37.7242	-80.6417	-80.62388	-79.54655	37.48672	38.75152	3.0	None	None	None	None	None	None	WV	None	Catchment outlet location	05050003	3532.8
93.0	05593000	KASKASKIA RIVER AT CARLYLE, IL	38.6117	-89.3561	-89.40838	-88.15191	38.56694	40.20669	3.0	None	None	None	None	None	None	IL	None	Catchment outlet location	07140202	7042.2
94.0	09431500	GILA RIVER NEAR REDROCK, NM	32.7269	-108.675	-108.97364	-107.77132	32.57098	33.7608	3.0	None	None	None	None	None	None	NM	None	Catchment outlet location	15040002	7327.1
95.0	06898000	Thompson River at Davis City, IA	40.6403	-93.8081	-94.50079	-93.7484	40.6082	41.38142	3.0	None	None	None	None	None	None	IA	None	Catchment outlet location	10280102	1815.6
96.0	05515500	KANKAKEE RIVER AT DAVIS, IND.	41.4	-86.7011	-86.71714	-86.24805	41.29568	41.80227	3.0	None	None	None	None	None	None	IN	None	Catchment outlet location	07120001	1390.8
97.0	05418500	Maquoketa River near Maquoketa, IA	42.0847	-90.6344	-91.80384	-90.55986	41.97474	42.78128	3.0	None	None	None	None	None	None	IA	None	Catchment outlet location	07060006	4022.3
98.0	03301500	ROLLING FORK NR BOSTON KY	37.7672	-85.7039	-85.83139	-84.82904	37.37424	38.00581	3.0	None	None	None	None	None	None	KY	None	Catchment outlet location	05140103	3364.4
99.0	01518000	TIOGA RIVER AT TIOGA, PA	41.9083	-77.1297	-77.76881	-77.17473	41.79022	42.13017	3.0	None	None	None	None	None	None	PA	None	Catchment outlet location	02050104	730.4
100.0	14233400	COWLITZ RIVER NR RANDLE, WASH.	46.4703	-122.0975	-122.16461	-121.33723	46.18277	46.89349	3.0	None	None	None	None	None	None	WA	None	Catchment outlet location	17080004	2667.7
101.0	01548500	PINE CREEK AT CEDAR RUN, PA	41.5217	-77.4478	-77.91046	-77.10807	41.40694	41.93853	3.0	None	None	None	None	None	None	PA	None	Catchment outlet location	02050205	1564.4
102.0	06933500	GASCONADE RIVER AT JEROME MO	37.9264	-91.9778	-92.91771	-91.70289	37.03794	38.02362	3.0	None	None	None	None	None	None	MO	None	Catchment outlet location	10290203	7355.6
103.0	11222000	KINGS R A PIEDRA CA	36.8167	-119.335	-119.44001	-118.31685	36.57031	37.22688	3.0	None	None	None	None	None	None	CA	None	Catchment outlet location	18030012	4384.9
104.0	08146000	SAN SABA RIVER AT SAN SABA, TX	31.2131	-98.7192	-100.6405	-98.65497	30.58714	31.34786	3.0	None	None	None	None	None	None	TX	None	Catchment outlet location	12090109	7889.1
105.0	02218500	OCONEE RIVER NEAR GREENSBORO, GA.	33.5811	-83.2728	-83.96088	-83.07935	33.54903	34.40557	3.0	None	None	None	None	None	None	GA	None	Catchment outlet location	03070101	2823.1
106.0	08167500	GUADALUPE RIVER NR SPRING BRANCH, TX	29.8603	-98.3833	-99.71565	-98.37586	29.77894	30.28553	3.0	None	None	None	None	None	None	TX	None	Catchment outlet location	12100201	3405.9
107.0	08015500	CALCASIEU RIVER NR KINDER, LA	30.5028	-92.9153	-93.36059	-92.58738	30.46217	31.45619	3.0	None	None	None	None	None	None	LA	None	Catchment outlet location	08080203	4403.0
108.0	07211500	CANADIAN R NR TAYLOR SPRINGS, NM	36.2969	-104.4933	-105.39777	-104.11631	36.23225	37.08878	3.0	None	None	None	None	None	None	NM	None	Catchment outlet location	11080003	7381.5
109.0	01426500	WEST BRANCH DELAWARE RIVER AT HALE EDDY NY	42.0031	-75.3839	-75.58999	-74.53766	41.91937	42.48011	3.0	None	None	None	None	None	None	NY	None	Catchment outlet location	02040101	1541.1
110.0	07019000	MERAMEC RIVER NEAR EUREKA, MO	38.5056	-90.5917	-91.808	-90.29323	37.47962	38.56945	3.0	None	None	None	None	None	None	MO	None	Catchment outlet location	07140102	9810.9
111.0	01643000	MONOCACY R AT JUG BRIDGE NR FREDERICK, MD	39.3869	-77.3661	-77.53134	-76.87062	39.34478	39.94719	3.0	None	None	None	None	None	None	MD	None	Catchment outlet location	02070009	2116.0
112.0	08150700	LLANO RIVER NR MASON, TX	30.6606	-99.1089	-100.51969	-99.08407	29.96641	30.87711	3.0	None	None	None	None	None	None	TX	None	Catchment outlet location	12090204	8410.1
113.0	14101500	WHITE RIVER BELOW TYGH VALLEY,OREG.	45.2417	-121.0939	-121.76883	-121.0831	45.07044	45.38956	3.0	None	None	None	None	None	None	OR	None	Catchment outlet location	17070306	1080.0
114.0	02192000	BROAD RIVER NEAR BELL, GA.	33.9742	-82.77	-83.69842	-82.71691	33.69901	34.60971	3.0	None	None	None	None	None	None	GA	None	Catchment outlet location	03060104	3703.7
115.0	01520000	COWANESQUE RIVER NR LAWRENCEVILLE, PA	41.9967	-77.1403	-77.76881	-77.11224	41.79022	42.13017	3.0	None	None	None	None	None	None	PA	None	Catchment outlet location	02050104	771.8
116.0	05455500	English River at Kalona, IA	41.4664	-91.7156	-92.76618	-91.71384	41.38316	41.75228	3.0	None	None	None	None	None	None	IA	None	Catchment outlet location	07080209	1484.1
117.0	03179000	BLUESTONE RIVER NEAR PIPESTEM, WV	37.5439	-81.0106	-81.53207	-80.93799	37.14511	37.6267	3.0	None	None	None	None	None	None	WV	None	Catchment outlet location	05050002	1020.5
118.0	12462500	WENATCHEE RIVER AT MONITOR, WASH.	47.4994	-120.4233	-121.19809	-120.34572	47.26593	48.19745	3.0	None	None	None	None	None	None	WA	None	Catchment outlet location	17020011	3369.6
119.0	01138000	AMMONOOSUC RIVER NEAR BATH, NH	44.1539	-71.9861	-72.04874	-71.28386	43.99899	44.38893	3.0	None	None	None	None	None	None	NH	None	Catchment outlet location	01080101	1023.1
120.0	06480000	BIG SIOUX RIVER NEAR BROOKINGS SD	44.18	-96.7486	-97.80859	-96.30216	43.97017	45.60158	3.0	None	None	None	None	None	None	SD	None	Catchment outlet location	10170203	10095.8
121.0	08172000	SAN MARCOS RIVER AT LULING, TX	29.6661	-97.6506	-98.72831	-97.62181	29.58314	30.18972	3.0	None	None	None	None	None	None	TX	None	Catchment outlet location	12100203	2170.4
122.0	05552500	FOX RIVER AT DAYTON, IL	41.3867	-88.7906	-89.04594	-88.0186	41.32484	43.20621	3.0	None	None	None	None	None	None	IL	None	Catchment outlet location	07120007	6842.8
123.0	11403000	EB OF NF FEATHER R NR RICH BAR CA	40.0106	-121.2175	-121.23556	-120.23739	39.81979	40.33472	3.0	None	None	None	None	None	None	CA	None	Catchment outlet location	18020122	2654.8
124.0	06869500	SALINE R AT TESCOTT, KS	39.0042	-97.8739	-101.54966	-97.88524	38.7585	39.31092	3.0	None	None	None	None	None	None	KS	None	Catchment outlet location	10260010	7303.8
125.0	03524000	CLINCH RIVER AT CLEVELAND, VA	36.9447	-82.155	-82.1957	-81.38083	36.81532	37.25943	3.0	None	None	None	None	None	None	VA	None	Catchment outlet location	06010205	1367.5
126.0	04144000	SHIAWASSEE RIVER AT BYRON, MI.	42.8236	-83.9458	-84.1259	-83.61514	42.49132	42.90209	3.0	None	None	None	None	None	None	MI	None	Catchment outlet location	04080203	945.4
127.0	13298500	SALMON RIVER NR CHALLIS ID	44.3786	-114.255	-115.20739	-113.97591	43.76648	44.56886	3.0	None	None	None	None	None	None	ID	None	Catchment outlet location	17060201	4662.0
128.0	03308500	GREEN RIVER AT MUNFORDVILLE, KY.	37.2681	-85.8861	-85.91054	-84.61657	36.84515	37.50172	3.0	None	None	None	None	None	None	KY	None	Catchment outlet location	05110001	4333.1
129.0	03079000	CASSELMAN RIVER AT MARKLETON, PA.	39.8597	-79.2278	-79.31576	-78.85916	39.52389	40.07214	3.0	None	None	None	None	None	None	PA	None	Catchment outlet location	05020006	989.4
130.0	01628500	S F SHENANDOAH RIVER NEAR LYNNWOOD, VA	38.3225	-78.755	-79.33522	-78.69116	37.86168	38.67239	3.0	None	None	None	None	None	None	VA	None	Catchment outlet location	02070005	2807.6
131.0	07186000	SPRING RIVER NEAR WACO, MO	37.2456	-94.5661	-94.64116	-93.56382	36.86964	37.60953	3.0	None	None	None	None	None	None	MO	None	Catchment outlet location	11070207	3014.8
132.0	12449950	METHOW RIVER NR PATEROS, WASH.	48.0775	-119.9839	-120.80649	-119.82914	47.98665	49.01815	3.0	None	None	None	None	None	None	WA	None	Catchment outlet location	17020008	4589.5
133.0	07346000	BIG CYPRESS CREEK NR JEFFERSON, TX	32.7494	-94.4986	-95.37693	-94.49123	32.67432	33.24757	3.0	None	None	None	None	None	None	TX	None	Catchment outlet location	11140306	1833.7
134.0	02273000	KISSIMMEE R AT S-65E NR OKEECHOBEE, FLA.	27.2256	-80.9628	-81.80289	-80.8672	27.12506	28.60233	3.0	None	None	None	None	None	None	FL	None	Catchment outlet location	03090101	0.0
135.0	01371500	WALLKILL RIVER AT GARDINER NY	41.6861	-74.1656	-74.75248	-74.09174	40.97447	41.78101	3.0	None	None	None	None	None	None	NY	None	Catchment outlet location	02020007	1800.1
136.0	06808500	West Nishnabotna River at Randolph, IA	40.8731	-95.58	-95.69642	-94.89821	40.8415	42.06047	3.0	None	None	None	None	None	None	IA	None	Catchment outlet location	10240002	3434.3
137.0	02102000	DEEP RIVER AT MONCURE, N.C.	35.6272	-79.1161	-80.09066	-79.10082	35.24043	36.15529	3.0	None	None	None	None	None	None	NC	None	Catchment outlet location	03030003	3714.1
138.0	05482500	North Raccoon River near Jefferson, IA	41.9881	-94.3767	-95.32827	-94.34675	41.91641	43.02291	3.0	None	None	None	None	None	None	IA	None	Catchment outlet location	07100006	4193.2
139.0	06609500	Boyer River at Logan, IA	41.6425	-95.7825	-95.82141	-94.9982	41.59554	42.64372	3.0	None	None	None	None	None	None	IA	None	Catchment outlet location	10230007	2255.9
140.0	05592500	KASKASKIA RIVER AT VANDALIA, IL	38.9597	-89.0889	-89.30007	-88.15191	38.93355	40.20669	3.0	None	None	None	None	None	None	IL	None	Catchment outlet location	07140202	5024.6
141.0	07378500	AMITE RIVER NEAR DENHAM SPRINGS, LA.	30.4639	-90.9903	-91.24009	-90.53354	30.43718	31.46035	3.0	None	None	None	None	None	None	LA	None	Catchment outlet location	08070202	3315.2
142.0	01064500	SACO RIVER NEAR CONWAY, NH	43.9908	-71.0914	-71.51549	-71.04639	43.8865	44.30144	3.0	None	None	None	None	None	None	NH	None	Catchment outlet location	01060002	997.2
143.0	05479000	East Fork Des Moines River at Dakota City, IA	42.7239	-94.1917	-95.01165	-93.65937	42.69545	43.74363	3.0	None	None	None	None	None	None	IA	None	Catchment outlet location	07100003	3387.7
144.0	03011020	ALLEGHENY RIVER AT SALAMANCA NY	42.1564	-78.7156	-78.88666	-77.82183	41.58189	42.45093	3.0	None	None	None	None	None	None	NY	None	Catchment outlet location	05010001	4164.7
145.0	04115000	MAPLE RIVER AT MAPLE RAPIDS, MICH.             .	43.1097	-84.6931	-84.85495	-84.06507	42.85376	43.31036	3.0	None	None	None	None	None	None	MI	None	Catchment outlet location	04050005	1124.1
146.0	06441500	BAD R NEAR FORT PIERRE SD	44.3267	-100.3839	-102.30371	-100.30152	43.7452	44.52258	3.0	None	None	None	None	None	None	SD	None	Catchment outlet location	10140102	8047.1
147.0	01329500	BATTEN KILL AT BATTENVILLE NY	43.1014	-73.4319	-73.511	-72.92526	42.95332	43.35993	3.0	None	None	None	None	None	None	NY	None	Catchment outlet location	02020003	1020.5
148.0	14232500	CISPUS RIVER NEAR RANDLE, WASH.	46.4417	-121.8628	-121.95214	-121.36639	46.18277	46.54355	3.0	None	None	None	None	None	None	WA	None	Catchment outlet location	17080004	831.4
149.0	11401500	INDIAN C NR CRESCENT MILLS CA	40.0781	-120.9269	-121.08976	-120.23739	39.81979	40.33472	3.0	None	None	None	None	None	None	CA	None	Catchment outlet location	18020122	1914.0
150.0	06817500	NODAWAY RIVER NEAR BURLINGTON JCT, MO	40.445	-95.0886	-95.11735	-94.36913	40.47072	41.50223	3.0	None	None	None	None	None	None	MO	None	Catchment outlet location	10240010	3211.6
151.0	01541500	CLEARFIELD CREEK AT DIMELING, PA	40.9717	-78.4061	-78.68533	-78.30372	40.42377	41.00952	3.0	None	None	None	None	None	None	PA	None	Catchment outlet location	02050201	960.9
152.0	03361500	BIG BLUE RIVER AT SHELBYVILLE, IN	39.5292	-85.7819	-85.85638	-85.24147	39.48223	40.08047	3.0	None	None	None	None	None	None	IN	None	Catchment outlet location	05120204	1090.4
153.0	01421000	EAST BR DELAWARE R AT FISHS EDDY NY	41.9731	-75.1744	-75.24838	-74.40017	41.79022	42.3843	3.0	None	None	None	None	None	None	NY	None	Catchment outlet location	02040102	2030.6
154.0	01664000	RAPPAHANNOCK RIVER AT REMINGTON, VA	38.5306	-77.8139	-78.38954	-77.75797	38.44492	38.91402	3.0	None	None	None	None	None	None	VA	None	Catchment outlet location	02080103	1605.8
155.0	04165500	CLINTON RIVER AT MOUNT CLEMENS, MICH.          .	42.5958	-82.9097	-83.38435	-82.76527	42.3955	42.97292	3.0	None	None	None	None	None	None	MI	None	Catchment outlet location	04090003	1901.1
156.0	03443000	FRENCH BROAD RIVER AT BLANTYRE N C	35.2989	-82.6242	-83.00808	-82.52231	35.04061	35.3764	3.0	None	None	None	None	None	None	NC	None	Catchment outlet location	06010105	766.6
157.0	08095000	NORTH BOSQUE RIVER NR CLIFTON, TX	31.7858	-97.5678	-98.41169	-97.51766	31.73279	32.3727	3.0	None	None	None	None	None	None	TX	None	Catchment outlet location	12060204	2507.1
158.0	08032000	NECHES RIVER NEAR NECHES, TEXAS	31.8922	-95.4306	-95.94125	-95.2222	31.83695	32.56017	3.0	None	None	None	None	None	None	TX	None	Catchment outlet location	12020001	2965.6
159.0	03051000	TYGART VALLEY RIVER AT BELINGTON, WV	39.0292	-79.9361	-80.13646	-79.72569	38.42823	39.1348	3.0	None	None	None	None	None	None	WV	None	Catchment outlet location	05020001	1056.7
160.0	02143000	HENRY FORK NEAR HENRY RIVER, N.C.	35.6842	-81.4028	-81.76957	-81.31713	35.56121	35.75536	3.0	None	None	None	None	None	None	NC	None	Catchment outlet location	03050102	215.5
161.0	05570000	SPOON RIVER AT SEVILLE, IL	40.4856	-90.3428	-90.779	-89.54752	40.42915	41.33984	3.0	None	None	None	None	None	None	IL	None	Catchment outlet location	07130005	4237.2
162.0	13186000	SF BOISE RIVER NR FEATHERVILLE ID	43.4944	-115.3056	-115.46984	-114.61747	43.44154	43.87731	3.0	None	None	None	None	None	None	ID	None	Catchment outlet location	17050113	1644.7
163.0	08340500	ARROYO CHICO NR GUADALUPE N M	35.5925	-107.1886	-107.98932	-106.98697	35.23224	36.0971	3.0	None	None	None	None	None	None	NM	None	Catchment outlet location	13020204	3600.1
164.0	03362500	SUGAR CREEK NEAR EDINBURGH, IN	39.3608	-85.9975	-85.97303	-85.19148	39.25727	40.04715	3.0	None	None	None	None	None	None	IN	None	Catchment outlet location	05120204	1227.7
165.0	05555300	VERMILION RIVER NEAR LEONORE, IL	41.2083	-88.9308	-89.09594	-88.08942	40.57079	41.30235	3.0	None	None	None	None	None	None	IL	None	Catchment outlet location	07130002	3240.1
166.0	08085500	CLEAR FORK BRAZOS RIVER AT FORT GRIFFIN, TX	32.9344	-99.2242	-100.80714	-99.1549	32.17022	33.25172	3.0	None	None	None	None	None	None	TX	None	Catchment outlet location	12060104	10328.9
167.0	07346070	LITTLE CYPRESS CREEK NR JEFFERSON, TX	32.7128	-94.3458	-95.23529	-94.35792	32.49518	33.02677	3.0	None	None	None	None	None	None	TX	None	Catchment outlet location	11140307	1748.3
168.0	02083500	TAR RIVER AT TARBORO, N. C.	35.8939	-77.5333	-78.89086	-77.36776	35.77784	36.46774	3.0	None	None	None	None	None	None	NC	None	Catchment outlet location	03020103	5654.0
169.0	05594000	SHOAL CREEK NEAR BREESE, IL	38.6097	-89.4944	-89.73333	-89.23924	38.59611	39.43182	3.0	None	None	None	None	None	None	IL	None	Catchment outlet location	07140203	1903.7
170.0	04073500	FOX RIVER AT BERLIN, WI	43.9539	-88.9522	-89.7375	-88.73515	43.49116	44.17272	3.0	None	None	None	None	None	None	WI	None	Catchment outlet location	04030201	3470.6
171.0	02365500	CHOCTAWHATCHEE RIVER AT CARYVILLE, FLA.	30.7756	-85.8278	-86.3605	-85.24151	30.74115	32.16426	3.0	None	None	None	None	None	None	FL	None	Catchment outlet location	03140203	9062.4
172.0	01500500	SUSQUEHANNA RIVER AT UNADILLA NY	42.3214	-75.3169	-75.35669	-74.55848	42.21932	42.9467	3.0	None	None	None	None	None	None	NY	None	Catchment outlet location	02050101	2543.4
173.0	01076500	PEMIGEWASSET RIVER AT PLYMOUTH, NH	43.7592	-71.6861	-72.04874	-71.37967	43.65737	44.21812	3.0	None	None	None	None	None	None	NH	None	Catchment outlet location	01070001	1611.0
174.0	12149000	SNOQUALMIE RIVER NEAR CARNATION, WASH.	47.6661	-121.9242	-122.06462	-121.21225	47.32425	47.80585	3.0	None	None	None	None	None	None	WA	None	Catchment outlet location	17110010	1561.8
175.0	06885500	BLACK VERMILLION R NR FRANKFORT, KS	39.6842	-96.4375	-96.58378	-96.0397	39.52504	40.0233	3.0	None	None	None	None	None	None	KS	None	Catchment outlet location	10270205	1061.9
176.0	06894000	LITTLE BLUE RIVER NEAR LAKE CITY, MO	39.1006	-94.3003	-94.5841	-94.24415	38.78766	39.14011	3.0	None	None	None	None	None	None	MO	None	Catchment outlet location	10300101	476.6
177.0	11213500	KINGS R AB NF NR TRIMMER CA	36.8633	-119.1233	-119.16506	-118.31685	36.57031	37.16022	3.0	None	None	None	None	None	None	CA	None	Catchment outlet location	18030010	2465.7
178.0	11080500	EF SAN GABRIEL R NR CAMP BONITA CA	34.2358	-117.805	-117.83611	-117.61697	34.18319	34.40233	3.0	None	None	None	None	None	None	CA	None	Catchment outlet location	18070106	219.1
179.0	07056000	BUFFALO RIVER NEAR ST. JOE, ARK.	35.9839	-92.7456	-93.54806	-92.72068	35.64468	36.17627	3.0	None	None	None	None	None	None	AR	None	Catchment outlet location	11010005	2147.1
180.0	02126000	ROCKY RIVER NEAR NORWOOD, N. C.	35.1483	-80.1758	-80.87804	-80.14232	34.78634	35.61788	3.0	None	None	None	None	None	None	NC	None	Catchment outlet location	03040105	3553.5
181.0	14080500	CROOKED R NR PRINEVILLE, OREG.	44.1139	-120.7944	-120.88981	-119.47919	43.37072	44.48971	3.0	None	None	None	None	None	None	OR	None	Catchment outlet location	17070304	6993.0
182.0	03349000	WHITE RIVER AT NOBLESVILLE, IN	40.0472	-86.0167	-86.01052	-84.88736	39.96132	40.43459	3.0	None	None	None	None	None	None	IN	None	Catchment outlet location	05120201	2222.2
183.0	03345500	EMBARRAS RIVER AT STE. MARIE, IL	38.9361	-88.0194	-88.46846	-87.68692	38.89899	40.11797	3.0	None	None	None	None	None	None	IL	None	Catchment outlet location	05120112	3926.4
184.0	07289500	BIG BLACK RIVER AT PICKENS, MS	32.8806	-89.9661	-90.04445	-89.04627	32.80347	33.70999	3.0	None	None	None	None	None	None	MS	None	Catchment outlet location	08060201	3866.9
185.0	02492000	BOGUE CHITTO NEAR BUSH, LA	30.6292	-89.8972	-90.63186	-89.87531	30.57049	31.65199	3.0	None	None	None	None	None	None	LA	None	Catchment outlet location	03180005	3141.7
186.0	08171300	BLANCO RIVER NR KYLE, TX	29.9792	-97.9097	-98.72831	-97.87594	29.90809	30.18972	3.0	None	None	None	None	None	None	TX	None	Catchment outlet location	12100203	1067.1
187.0	03567500	SOUTH CHICKAMAUGA CREEK NEAR CHICKAMAUGA, TN	35.0139	-85.2075	-85.50768	-84.93443	34.57402	35.07644	3.0	None	None	None	None	None	None	TN	None	Catchment outlet location	06020001	1108.5
188.0	06815000	BIG NEMAHA RIVER AT FALLS CITY, NEBR.	40.0356	-95.5958	-96.77542	-95.60643	39.63752	40.63154	3.0	None	None	None	None	None	None	NE	None	Catchment outlet location	10240008	3470.6
189.0	05471500	South Skunk River near Oskaloosa, IA	41.3553	-92.6586	-93.97432	-92.62619	41.28734	42.53548	3.0	None	None	None	None	None	None	IA	None	Catchment outlet location	07080105	4234.7
190.0	05555500	VERMILION RIVER AT LOWELL, IL	41.2553	-89.0122	-89.17092	-88.08942	40.57079	41.31068	3.0	None	None	None	None	None	None	IL	None	Catchment outlet location	07130002	3310.0
191.0	07288500	BIG SUNFLOWER RIVER AT SUNFLOWER, MS	33.5472	-90.5431	-90.80266	-90.43772	33.4367	34.56403	3.0	None	None	None	None	None	None	MS	None	Catchment outlet location	08030207	1986.5
192.0	07307800	PEASE RIVER NR CHILDRESS, TX	34.2275	-100.0733	-101.97332	-100.08361	33.64516	34.53919	3.0	None	None	None	None	None	None	TX	None	Catchment outlet location	11130105	7132.9
193.0	03410500	SOUTH FORK CUMBERLAND RIVER NEAR STEARNS, KY	36.6269	-84.5333	-85.03568	-84.20414	36.07444	36.67269	3.0	None	None	None	None	None	None	KY	None	Catchment outlet location	05130104	2470.9
194.0	03109500	L BEAVER C NR EAST LIVERPOOL OH	40.6758	-80.5408	-80.9655	-80.33393	40.62788	41.00116	3.0	None	None	None	None	None	None	OH	None	Catchment outlet location	05030101	1284.6
195.0	02202500	OGEECHEE RIVER NEAR EDEN, GA.	32.1914	-81.4161	-83.11935	-81.3088	32.15759	33.63486	3.0	None	None	None	None	None	None	GA	None	Catchment outlet location	03060202	6863.5
196.0	03198500	BIG COAL RIVER AT ASHFORD, WV	38.1797	-81.7117	-81.79453	-81.22128	37.69085	38.20161	3.0	None	None	None	None	None	None	WV	None	Catchment outlet location	05050009	1012.7
197.0	01361000	KINDERHOOK CREEK AT ROSSMAN NY	42.3306	-73.7444	-73.75264	-73.24188	42.25343	42.6892	3.0	None	None	None	None	None	None	NY	None	Catchment outlet location	02020006	852.1
198.0	06607200	Maple River at Mapleton, IA	42.1569	-95.8097	-95.88806	-95.18984	42.09546	42.88118	3.0	None	None	None	None	None	None	IA	None	Catchment outlet location	10230005	1732.7
199.0	08150000	LLANO RIVER NR JUNCTION, TX	30.5042	-99.7342	-100.51969	-99.65899	29.96641	30.76046	3.0	None	None	None	None	None	None	TX	None	Catchment outlet location	12090204	4804.8
200.0	05472500	North Skunk River near Sigourney, IA	41.3008	-92.2044	-93.2411	-92.18043	41.24152	42.02723	3.0	None	None	None	None	None	None	IA	None	Catchment outlet location	07080106	1890.7
201.0	01556000	FRANKSTOWN BR JUNIATA RIVER AT WILLIAMSBURG, PA.	40.4631	-78.2	-78.60201	-78.16208	40.19881	40.60958	3.0	None	None	None	None	None	None	PA	None	Catchment outlet location	02050302	753.7
202.0	06868000	SALINE R NR WILSON, KS	38.9333	-98.5333	-101.54966	-98.54346	38.83349	39.30675	3.0	None	None	None	None	None	None	KS	None	Catchment outlet location	10260009	4921.0
203.0	06192500	YELLOWSTONE RIVER NEAR LIVINGSTON, MT.	45.5972	-110.5653	-111.13562	-109.70418	43.92017	45.62657	3.0	None	None	None	None	None	None	MT	None	Catchment outlet location	10070002	9197.1
204.0	03521500	CLINCH RIVER AT RICHLANDS, VA	37.0861	-81.7811	-81.80827	-81.3975	37.01946	37.25943	3.0	None	None	None	None	None	None	VA	None	Catchment outlet location	06010205	354.8
205.0	01423000	WEST BRANCH DELAWARE RIVER AT WALTON NY	42.1661	-75.1403	-75.22338	-74.53766	42.10683	42.48011	3.0	None	None	None	None	None	None	NY	None	Catchment outlet location	02040101	859.9
206.0	08205500	FRIO RIVER NR DERBY, TX	28.7364	-99.1444	-99.93644	-98.91327	28.67078	30.01891	3.0	None	None	None	None	None	None	TX	None	Catchment outlet location	12110106	8881.1
207.0	03182500	GREENBRIER RIVER AT BUCKEYE, WV	38.1858	-80.1308	-80.20729	-79.54655	38.0533	38.75152	3.0	None	None	None	None	None	None	WV	None	Catchment outlet location	05050003	1398.6
208.0	03032500	REDBANK CREEK AT ST. CHARLES, PA.	40.9944	-79.3944	-79.45324	-78.49672	40.932	41.33861	3.0	None	None	None	None	None	None	PA	None	Catchment outlet location	05010006	1367.5
209.0	02135000	LITTLE PEE DEE R. AT GALIVANTS FERRY, S.C.	34.0569	-79.2472	-79.76572	-78.65922	33.97397	35.33459	3.0	None	None	None	None	None	None	SC	None	Catchment outlet location	03040204	7226.1
210.0	03540500	EMORY RIVER AT OAKDALE, TN	35.9831	-84.5581	-85.20773	-84.35952	35.728	36.27625	3.0	None	None	None	None	None	None	TN	None	Catchment outlet location	06010208	1978.8
211.0	06860000	SMOKY HILL R AT ELKADER, KS	38.7925	-100.8553	-102.82029	-100.75978	38.50437	39.27759	3.0	None	None	None	None	None	None	KS	None	Catchment outlet location	10260003	9207.5
212.0	12144500	SNOQUALMIE RIVER NEAR SNOQUALMIE, WASH.	47.5453	-121.8411	-121.90631	-121.21225	47.32425	47.71003	3.0	None	None	None	None	None	None	WA	None	Catchment outlet location	17110010	971.3
213.0	02347500	FLINT RIVER NEAR CULLODEN, GA.	32.7214	-84.2325	-84.81074	-84.11251	32.61168	33.68485	3.0	None	None	None	None	None	None	GA	None	Catchment outlet location	03130005	4791.5
214.0	05508000	SALT RIVER NEAR NEW LONDON, MO	39.6122	-91.4083	-92.62454	-91.38056	38.97938	40.42332	3.0	None	None	None	None	None	None	MO	None	Catchment outlet location	07110007	6423.2
215.0	11413000	N YUBA R BL GOODYEARS BAR CA	39.525	-120.9369	-120.95644	-120.40819	39.46985	39.73898	3.0	None	None	None	None	None	None	CA	None	Catchment outlet location	18020125	647.5
216.0	03531500	POWELL RIVER NEAR JONESVILLE, VA	36.6619	-83.095	-83.15389	-82.60147	36.62785	37.05946	3.0	None	None	None	None	None	None	VA	None	Catchment outlet location	06010206	826.2
217.0	05582000	SALT CREEK NEAR GREENVIEW, IL	40.1336	-89.7356	-89.83748	-88.48102	39.83757	40.58996	3.0	None	None	None	None	None	None	IL	None	Catchment outlet location	07130009	4672.4
218.0	05462000	Shell Rock River at Shell Rock, IA	42.7119	-92.5828	-93.81601	-92.52205	42.65796	43.79778	3.0	None	None	None	None	None	None	IA	None	Catchment outlet location	07080202	4522.1
219.0	06888500	MILL C NR PAXICO, KS	39.0622	-96.1811	-96.56712	-96.08969	38.79182	39.14844	3.0	None	None	None	None	None	None	KS	None	Catchment outlet location	10270102	818.4
220.0	06847000	BEAVER CREEK NEAR BEAVER CITY, NEBR.	40.12	-99.8931	-101.92043	-99.80159	39.20009	40.11079	3.0	None	None	None	None	None	None	NE	None	Catchment outlet location	10250014	0.0
221.0	01560000	DUNNING CREEK AT BELDEN, PA.	40.0717	-78.4928	-78.74366	-78.42453	40.028	40.39295	3.0	None	None	None	None	None	None	PA	None	Catchment outlet location	02050303	445.5
222.0	13336500	SELWAY RIVER NR LOWELL, ID	46.0867	-115.5128	-115.53649	-114.36335	45.44955	46.39774	3.0	None	None	None	None	None	None	ID	None	Catchment outlet location	17060302	4946.9
223.0	05451500	Iowa River at Marshalltown, IA	42.0658	-92.9075	-93.89517	-92.75951	42.00806	43.28953	3.0	None	None	None	None	None	None	IA	None	Catchment outlet location	07080208	3967.9
224.0	04178000	ST. JOSEPH RIVER NEAR NEWVILLE, IN	41.3856	-84.8017	-84.97735	-84.4041	41.27361	41.91352	3.0	None	None	None	None	None	None	OH	None	Catchment outlet location	04100003	1579.9
225.0	07052500	JAMES RIVER AT GALENA, MO	36.8053	-93.4614	-93.7397	-92.67902	36.70701	37.35108	3.0	None	None	None	None	None	None	MO	None	Catchment outlet location	11010002	2556.3
226.0	05412500	Turkey River at Garber, IA	42.74	-91.2617	-92.51622	-91.17226	42.54131	43.477	3.0	None	None	None	None	None	None	IA	None	Catchment outlet location	07060004	4001.6
227.0	12449500	METHOW RIVER AT TWISP, WA	48.3653	-120.115	-120.80649	-119.87913	48.19494	49.01815	3.0	None	None	None	None	None	None	WA	None	Catchment outlet location	17020008	3369.6
228.0	06340500	KNIFE RIVER AT HAZEN, ND	47.2853	-101.6217	-103.24522	-101.45967	46.79055	47.49711	3.0	None	None	None	None	None	None	ND	None	Catchment outlet location	10130201	5801.6
229.0	04079000	WOLF RIVER AT NEW LONDON, WI	44.3922	-88.7403	-89.26673	-88.24357	44.26187	45.85578	3.0	None	None	None	None	None	None	WI	None	Catchment outlet location	04030202	5853.4
230.0	03490000	N F HOLSTON RIVER NEAR GATE CITY, VA	36.6086	-82.5681	-82.70813	-81.23919	36.5612	37.10112	3.0	None	None	None	None	None	None	VA	None	Catchment outlet location	06010101	1740.5
231.0	03512000	OCONALUFTEE RIVER AT BIRDTOWN, N. C.	35.4614	-83.3536	-83.45384	-83.11805	35.40722	35.71384	3.0	None	None	None	None	None	None	NC	None	Catchment outlet location	06010203	476.6
232.0	05507500	SALT RIVER NEAR MONROE CITY, MO.	39.5403	-91.6722	-92.62454	-91.64718	38.97938	40.42332	3.0	None	None	None	None	None	None	MO	None	Catchment outlet location	07110007	5775.7
233.0	05554500	VERMILION RIVER AT PONTIAC, IL	40.8778	-88.6361	-88.69599	-88.08942	40.57079	40.99406	3.0	None	None	None	None	None	None	IL	None	Catchment outlet location	07130002	1499.6
234.0	07068000	CURRENT RIVER  AT  DONIPHAN,MO.	36.6219	-90.8475	-92.02747	-90.77099	36.61952	37.5927	3.0	None	None	None	None	None	None	MO	None	Catchment outlet location	11010008	5278.4
235.0	01197500	HOUSATONIC RIVER NEAR GREAT BARRINGTON, MA	42.2319	-73.3553	-73.39436	-73.01275	42.14512	42.60588	3.0	None	None	None	None	None	None	MA	None	Catchment outlet location	01100005	730.4
236.0	03010500	ALLEGHENY RIVER AT ELDRED, PA.	41.9633	-78.3864	-78.6742	-77.82183	41.58189	41.98851	3.0	None	None	None	None	None	None	PA	None	Catchment outlet location	05010001	1424.5
237.0	03504000	NANTAHALA RIVER NEAR RAINBOW SPRINGS, N. C.	35.1269	-83.6192	-83.67047	-83.4555	34.97812	35.16393	3.0	None	None	None	None	None	None	NC	None	Catchment outlet location	06010202	134.4
238.0	03114500	MIDDLE ISLAND CREEK AT LITTLE, WV	39.475	-80.9972	-81.03215	-80.50473	39.11562	39.63888	3.0	None	None	None	None	None	None	WV	None	Catchment outlet location	05030201	1186.2
239.0	03331500	TIPPECANOE RIVER NEAR ORA, IN	41.1572	-86.5636	-86.60209	-85.49143	40.90284	41.40527	3.0	None	None	None	None	None	None	IN	None	Catchment outlet location	05120106	2217.0
240.0	05585000	LA MOINE RIVER AT RIPLEY, IL	40.0253	-90.6319	-91.26226	-90.41405	39.95422	40.68578	3.0	None	None	None	None	None	None	IL	None	Catchment outlet location	07130010	3348.9
241.0	01055500	NEZINSCOT RIVER AT TURNER CENTER, ME	44.2694	-70.2303	-70.58231	-70.17987	44.16563	44.48891	3.0	None	None	None	None	None	None	ME	None	Catchment outlet location	01040002	437.7
242.0	01595000	NB POTOMAC R AT STEYER, MD	39.3019	-79.3072	-79.5352	-79.28689	39.14898	39.39311	3.0	None	None	None	None	None	None	MD	None	Catchment outlet location	02070002	189.1
243.0	09251000	YAMPA RIVER NEAR MAYBELL, CO.	40.5028	-108.0292	-108.13211	-106.60067	39.9448	40.91799	3.0	None	None	None	None	None	None	CO	None	Catchment outlet location	14050002	8831.9
244.0	06600500	Floyd River at James, IA	42.5767	-96.3119	-96.37548	-95.57727	42.52456	43.32277	3.0	None	None	None	None	None	None	IA	None	Catchment outlet location	10230002	2294.7
245.0	02482000	PEARL RIVER AT EDINBURG, MS	32.7983	-89.335	-89.39872	-88.76298	32.566	33.25174	3.0	None	None	None	None	None	None	MS	None	Catchment outlet location	03180001	2341.4
246.0	09442692	TULAROSA RIVER ABOVE ARAGON, N. MEX.	33.8914	-108.515	-108.60703	-108.35039	33.84161	34.08991	3.0	None	None	None	None	None	None	NM	None	Catchment outlet location	15040004	243.5
247.0	01329000	BATTEN KILL AT ARLINGTON, VT	43.0772	-73.1572	-73.25688	-72.92526	42.95332	43.26828	3.0	None	None	None	None	None	None	VT	None	Catchment outlet location	02020003	393.7
248.0	07163000	COUNCIL CREEK NEAR STILLWATER, OK	36.1161	-96.8675	-96.96995	-96.81747	36.07394	36.23059	3.0	None	None	None	None	None	None	OK	None	Catchment outlet location	11050003	80.3
249.0	03303000	BLUE RIVER NEAR WHITE CLOUD, IND	38.2375	-86.2283	-86.27298	-85.80388	38.09495	38.53905	3.0	None	None	None	None	None	None	IN	None	Catchment outlet location	05140104	1232.8
250.0	07196500	ILLINOIS RIVER NEAR TAHLEQUAH, OK	35.9228	-94.9233	-95.05359	-94.05542	35.82814	36.38473	3.0	None	None	None	None	None	None	OK	None	Catchment outlet location	11110103	2483.8
251.0	07221000	MORA RIVER NR SHOEMAKER N MEX.	35.8003	-104.7828	-105.57274	-104.7662	35.58652	36.38056	3.0	None	None	None	None	None	None	NM	None	Catchment outlet location	11080004	2859.4
252.0	11355500	HAT CREEK NEAR HAT CREEK CALIF	40.6867	-121.4236	-121.66466	-121.32471	40.44886	40.71382	3.0	None	None	None	None	None	None	CA	None	Catchment outlet location	18020003	419.6
253.0	06928000	GASCONADE RIVER NEAR HAZLEGREEN, MISSOURI	37.7592	-92.4517	-92.91771	-92.15282	37.07127	37.79032	3.0	None	None	None	None	None	None	MO	None	Catchment outlet location	10290201	3237.5
254.0	03361650	SUGAR CREEK AT NEW PALESTINE, IND.	39.7142	-85.8856	-86.05635	-85.72056	39.69053	39.98466	3.0	None	None	None	None	None	None	IN	None	Catchment outlet location	05120204	243.2
255.0	05410490	KICKAPOO RIVER AT STEUBEN, WI	43.1828	-90.8583	-90.97897	-90.40155	43.13705	43.9186	3.0	None	None	None	None	None	None	WI	None	Catchment outlet location	07070006	1779.3
256.0	05440000	KISHWAUKEE RIVER NEAR PERRYVILLE, IL	42.1958	-88.9986	-89.04594	-88.31438	41.74144	42.58131	3.0	None	None	None	None	None	None	IL	None	Catchment outlet location	07090006	2846.4
257.0	04176500	RIVER RAISIN NEAR MONROE, MI	41.9606	-83.5311	-84.50917	-83.50682	41.61646	42.27719	3.0	None	None	None	None	None	None	MI	None	Catchment outlet location	04100002	2698.8
258.0	02055000	ROANOKE RIVER AT ROANOKE, VA	37.2583	-79.9389	-80.48227	-79.91319	37.01098	37.40926	3.0	None	None	None	None	None	None	VA	None	Catchment outlet location	03010101	1023.1
259.0	03069000	SHAVERS FORK AT PARSONS, WV	39.0958	-79.6778	-80.01565	-79.62987	38.42823	39.12646	3.0	None	None	None	None	None	None	WV	None	Catchment outlet location	05020004	554.3
260.0	04223000	GENESEE RIVER AT PORTAGEVILLE NY	42.5703	-78.0425	-78.41022	-77.64117	41.82433	42.73919	3.0	None	None	None	None	None	None	NY	None	Catchment outlet location	04130002	2548.6
261.0	06799500	LOGAN CREEK NEAR UEHLING, NEBR.	41.7128	-96.5217	-97.45031	-96.41464	41.65803	42.57706	3.0	None	None	None	None	None	None	NE	None	Catchment outlet location	10220004	2628.9
262.0	11532500	SMITH R NR CRESCENT CITY CA	41.7917	-124.075	-124.10177	-123.61184	41.49036	42.15526	3.0	None	None	None	None	None	None	CA	None	Catchment outlet location	18010101	1589.4
263.0	02219500	APALACHEE RIVER NEAR BUCKHEAD, GA.	33.6086	-83.3494	-83.97338	-83.30848	33.5657	34.06813	3.0	None	None	None	None	None	None	GA	None	Catchment outlet location	03070101	1129.2
264.0	07069500	SPRING RIVER AT IMBODEN, ARK.	36.2053	-91.1719	-92.01914	-91.11677	36.14876	36.82616	3.0	None	None	None	None	None	None	AR	None	Catchment outlet location	11010010	3064.0
265.0	07144200	L ARKANSAS R AT VALLEY CENTER, KS	37.8322	-97.3878	-98.20726	-97.22158	37.76534	38.55938	3.0	None	None	None	None	None	None	KS	None	Catchment outlet location	11030012	3436.9
266.0	03328500	EEL RIVER NEAR LOGANSPORT, IN	40.7819	-86.2639	-86.37297	-85.29979	40.72787	41.32611	3.0	None	None	None	None	None	None	IN	None	Catchment outlet location	05120104	2043.5
267.0	14308000	S. UMPQUA RIVER @ TILLER, OR	42.9306	-122.9472	-122.99364	-122.39956	42.82081	43.21491	3.0	None	None	None	None	None	None	OR	None	Catchment outlet location	17100302	1162.9
268.0	07177500	BIRD CREEK NEAR SPERRY, OK	36.2783	-95.9539	-96.61167	-95.86763	36.24891	36.90548	3.0	None	None	None	None	None	None	OK	None	Catchment outlet location	11070107	2344.0
269.0	11427000	NF AMERICAN R A NORTH FORK DAM CA	38.9361	-121.0228	-121.04809	-120.24155	38.90744	39.33071	3.0	None	None	None	None	None	None	CA	None	Catchment outlet location	18020128	885.8
270.0	03289500	ELKHORN CREEK NEAR FRANKFORT, KY	38.2686	-84.8147	-84.84821	-84.26246	37.91998	38.35158	3.0	None	None	None	None	None	None	KY	None	Catchment outlet location	05100205	1225.1
271.0	01334500	HOOSIC RIVER NEAR EAGLE BRIDGE NY	42.9386	-73.3775	-73.43602	-72.97525	42.47006	43.06831	3.0	None	None	None	None	None	None	NY	None	Catchment outlet location	02020003	1320.9
272.0	03167000	REED CREEK AT GRAHAMS FORGE, VA	36.9394	-80.8869	-81.3821	-80.84217	36.82016	37.07262	3.0	None	None	None	None	None	None	VA	None	Catchment outlet location	05050001	639.7
273.0	03161000	SOUTH FORK NEW RIVER NEAR JEFFERSON, N. C.	36.3931	-81.4072	-81.74871	-81.3046	36.1036	36.42689	3.0	None	None	None	None	None	None	NC	None	Catchment outlet location	05050001	531.0
274.0	01558000	LITTLE JUNIATA RIVER AT SPRUCE CREEK, PA.	40.6125	-78.1408	-78.48536	-78.10375	40.46543	40.82621	3.0	None	None	None	None	None	None	PA	None	Catchment outlet location	02050302	569.8
275.0	06454500	NIOBRARA RIVER ABOVE BOX BUTTE RESERVOIR, NE	42.4597	-103.1708	-104.68249	-103.11773	42.19545	42.86868	3.0	None	None	None	None	None	None	NE	None	Catchment outlet location	10150002	3626.0
276.0	10296000	W WALKER R BL L WALKER R NR COLEVILLE, CA	38.3797	-119.4492	-119.66498	-119.35003	38.1159	38.42669	3.0	None	None	None	None	None	None	CA	None	Catchment outlet location	16050302	466.2
277.0	04100500	ELKHART RIVER AT GOSHEN, IND.	41.5933	-85.8486	-85.92977	-85.17739	41.24985	41.69395	3.0	None	None	None	None	None	None	IN	None	Catchment outlet location	04050001	1538.5
278.0	05452000	Salt Creek near Elberon, IA	41.9642	-92.3131	-92.64537	-92.1596	41.93308	42.20637	3.0	None	None	None	None	None	None	IA	None	Catchment outlet location	07080208	520.6
279.0	08171000	BLANCO RIVER AT WIMBERLEY, TX	29.9942	-98.0886	-98.72831	-98.05507	29.90809	30.18972	3.0	None	None	None	None	None	None	TX	None	Catchment outlet location	12100203	919.5
280.0	03075500	YOUGHIOGHENY R NR OAKLAND, MD	39.4219	-79.4256	-79.57405	-79.25077	39.22811	39.4889	3.0	None	None	None	None	None	None	MD	None	Catchment outlet location	05020006	347.1
281.0	08013500	CALCASIEU RIVER NEAR OBERLIN, LA.	30.6403	-92.8139	-93.23561	-92.58738	30.60382	31.45619	3.0	None	None	None	None	None	None	LA	None	Catchment outlet location	08080203	1950.3
282.0	12459000	WENATCHEE RIVER AT PESHASTIN, WASH.	47.5833	-120.6128	-121.19809	-120.42488	47.44507	48.19745	3.0	None	None	None	None	None	None	WA	None	Catchment outlet location	17020011	2590.0
283.0	02475500	CHUNKY RIVER NR CHUNKY, MS	32.3264	-88.9097	-89.27374	-88.90879	32.17024	32.70182	3.0	None	None	None	None	None	None	MS	None	Catchment outlet location	03170001	955.7
284.0	03532000	POWELL RIVER NEAR ARTHUR, TN	36.5417	-83.6303	-83.68714	-82.60147	36.40289	37.05946	3.0	None	None	None	None	None	None	TN	None	Catchment outlet location	06010206	1774.2
285.0	05526000	IROQUOIS RIVER NEAR CHEBANSE, IL	41.0089	-87.8242	-88.23357	-86.91461	40.37915	41.1857	3.0	None	None	None	None	None	None	IL	None	Catchment outlet location	07120002	5415.7
286.0	03050500	TYGART VALLEY RIVER NEAR ELKINS, WV	38.925	-79.8792	-80.13646	-79.72569	38.42823	38.96399	3.0	None	None	None	None	None	None	WV	None	Catchment outlet location	05020001	704.5
287.0	04113000	GRAND RIVER AT LANSING, MICH.                  .	42.7506	-84.5553	-84.79245	-83.92342	42.02473	42.79794	3.0	None	None	None	None	None	None	MI	None	Catchment outlet location	04050004	3185.7
288.0	04221000	GENESEE RIVER AT WELLSVILLE NY	42.1222	-77.9575	-78.03528	-77.64117	41.82433	42.25177	3.0	None	None	None	None	None	None	NY	None	Catchment outlet location	04130002	745.9
289.0	03266000	STILLWATER R AT ENGLEWOOD OH	39.8694	-84.2825	-84.90237	-84.17081	39.77802	40.34293	3.0	None	None	None	None	None	None	OH	None	Catchment outlet location	05080001	1683.5
290.0	03159500	HOCKING R AT ATHENS OH	39.3289	-82.0878	-82.82354	-81.942	39.17395	39.88884	3.0	None	None	None	None	None	None	OH	None	Catchment outlet location	05030204	2442.4
291.0	05569500	SPOON RIVER AT LONDON MILLS, IL	40.7089	-90.2814	-90.42488	-89.54752	40.63745	41.33984	3.0	None	None	None	None	None	None	IL	None	Catchment outlet location	07130005	2776.5
292.0	13340600	N.F. CLEARWATER RIVER NR CANYON RANGER STATION,	46.8406	-115.6197	-115.81146	-114.74245	46.39106	47.03514	3.0	None	None	None	None	None	None	ID	None	Catchment outlet location	17060307	3522.4
293.0	04221500	GENESEE RIVER AT SCIO, N. Y.	42.1639	-77.9806	-78.06028	-77.64117	41.82433	42.25177	3.0	None	None	None	None	None	None	NY	None	Catchment outlet location	04130002	797.7
294.0	12413500	COEUR D'ALENE RIVER NR CATALDO, IDAHO	47.5639	-116.3069	-116.62382	-115.60898	47.37008	48.08913	3.0	None	None	None	None	None	None	ID	None	Catchment outlet location	17010303	3159.8
295.0	09430500	GILA RIVER NEAR GILA, NM	33.0611	-108.5367	-108.68618	-107.77132	32.89593	33.7608	3.0	None	None	None	None	None	None	NM	None	Catchment outlet location	15040001	4827.8
296.0	05481000	Boone River near Webster City, IA	42.4336	-93.8033	-94.15762	-93.6177	42.35801	43.17705	3.0	None	None	None	None	None	None	IA	None	Catchment outlet location	07100005	2186.0
297.0	01663500	HAZEL RIVER AT RIXEYVILLE, VA	38.5917	-77.9653	-78.38954	-77.94544	38.44492	38.79737	3.0	None	None	None	None	None	None	VA	None	Catchment outlet location	02080103	743.3
298.0	08103800	LAMPASAS RIVER NR KEMPNER, TX	31.0817	-98.0164	-98.58249	-97.98008	30.92042	31.63115	3.0	None	None	None	None	None	None	TX	None	Catchment outlet location	12060203	2118.6
299.0	01634000	N F SHENANDOAH RIVER NEAR STRASBURG, VA	38.9767	-78.3364	-79.11859	-78.31621	38.3866	39.014	3.0	None	None	None	None	None	None	VA	None	Catchment outlet location	02070006	1989.1
300.0	12340000	BLACKFOOT RIVER NEAR BONNER, MT.	46.8997	-113.7556	-113.88259	-112.29284	46.62853	47.43507	3.0	None	None	None	None	None	None	MT	None	Catchment outlet location	17010203	5931.1
301.0	09299500	WHITEROCKS RIVER NEAR WHITEROCKS, UTAH	40.5869	-109.9269	-110.16095	-109.87098	40.56137	40.83883	3.0	None	None	None	None	None	None	UT	None	Catchment outlet location	14060003	292.7
302.0	05476500	Des Moines River at Estherville, IA	43.3975	-94.8439	-96.13647	-94.78835	43.32035	44.25604	3.0	None	None	None	None	None	None	IA	None	Catchment outlet location	07100002	3553.5
303.0	03020500	OIL CREEK AT ROUSEVILLE, PA.	41.4817	-79.6956	-79.91566	-79.42991	41.44858	41.89268	3.0	None	None	None	None	None	None	PA	None	Catchment outlet location	05010003	777.0
304.0	07172000	CANEY R NR ELGIN, KS	37.0036	-96.315	-96.69083	-96.27589	36.94463	37.50955	3.0	None	None	None	None	None	None	KS	None	Catchment outlet location	11070106	1152.6
305.0	01667500	RAPIDAN RIVER NEAR CULPEPER, VA	38.3503	-77.9753	-78.54369	-77.94127	38.09914	38.61407	3.0	None	None	None	None	None	None	VA	None	Catchment outlet location	02080103	1222.5
306.0	02165000	REEDY RIVER NEAR WARE SHOALS,S.C.	34.4444	-82.1764	-82.50278	-82.117	34.39057	35.0138	3.0	None	None	None	None	None	None	SC	None	Catchment outlet location	03050109	611.2
307.0	04212000	GRAND R NR MADISON OH	41.7406	-81.0467	-81.14463	-80.58388	41.26111	41.85102	3.0	None	None	None	None	None	None	OH	None	Catchment outlet location	04110004	1504.8
308.0	05408000	KICKAPOO RIVER AT LA FARGE, WI	43.5742	-90.6431	-90.779	-90.40155	43.54948	43.9186	3.0	None	None	None	None	None	None	WI	None	Catchment outlet location	07070006	688.9
309.0	03324300	SALAMONIE RIVER NEAR WARREN, IND.	40.7125	-85.4536	-85.57726	-84.96235	40.29044	40.79703	3.0	None	None	None	None	None	None	IN	None	Catchment outlet location	05120102	1100.8
310.0	11160000	SOQUEL CR AT SOQUEL CALIF	36.9914	-121.9547	-122.00211	-121.79547	36.97025	37.16439	3.0	None	None	None	None	None	None	CA	None	Catchment outlet location	18060001	104.1
311.0	13200000	MORES CREEK AB ROBIE CREEK NR ARROWROCK DAM ID	43.6481	-115.9889	-116.11557	-115.62565	43.58318	44.03562	3.0	None	None	None	None	None	None	ID	None	Catchment outlet location	17050112	1033.4
312.0	03024000	FRENCH CREEK AT UTICA, PA.	41.4375	-79.9561	-80.39476	-79.50072	41.40276	42.20097	3.0	None	None	None	None	None	None	PA	None	Catchment outlet location	05010004	2662.5
313.0	02479300	RED CREEK AT VESTRY, MS	30.7361	-88.7806	-89.56536	-88.73799	30.69964	31.08958	3.0	None	None	None	None	None	None	MS	None	Catchment outlet location	03170007	1142.2
314.0	06191500	YELLOWSTONE RIVER AT CORWIN SPRINGS, MT.	45.1119	-110.7936	-110.92316	-109.70418	43.92017	45.27663	3.0	None	None	None	None	None	None	MT	None	Catchment outlet location	10070002	6793.6
315.0	05244000	CROW WING RIVER AT NIMROD, MN	46.6403	-94.8789	-95.5699	-94.55922	46.61982	47.2514	3.0	None	None	None	None	None	None	MN	None	Catchment outlet location	07010106	2615.9
316.0	11224500	LOS GATOS C AB NUNEZ CYN NR COALINGA CA	36.2147	-120.4697	-120.70648	-120.42069	36.14538	36.35202	3.0	None	None	None	None	None	None	CA	None	Catchment outlet location	18030012	248.1
317.0	03269500	MAD R NR SPRINGFIELD OH	39.9231	-83.8703	-84.00668	-83.53758	39.86134	40.40126	3.0	None	None	None	None	None	None	OH	None	Catchment outlet location	05080001	1269.1
318.0	03470000	LITTLE PIGEON RIVER AT SEVIERVILLE, TENN.	35.8783	-83.5778	-83.75796	-83.2347	35.56553	35.92214	3.0	None	None	None	None	None	None	TN	None	Catchment outlet location	06010107	914.3
319.0	01200000	TENMILE RIVER NEAR GAYLORDSVILLE, CT	41.6589	-73.5289	-73.68598	-73.39185	41.52855	42.07264	3.0	None	None	None	None	None	None	NY	None	Catchment outlet location	01100005	525.8
320.0	06426500	BELLE FOURCHE RIVER BELOW MOORCROFT, WYO.	44.3219	-104.94	-105.91979	-104.70498	43.59939	44.41426	3.0	None	None	None	None	None	None	WY	None	Catchment outlet location	10120201	4377.1
321.0	01348000	EAST CANADA CREEK AT EAST CREEK NY	43.0167	-74.7411	-74.93578	-74.44585	42.99081	43.39742	3.0	None	None	None	None	None	None	NY	None	Catchment outlet location	02020004	748.5
322.0	03175500	WOLF CREEK NEAR NARROWS, VA	37.3056	-80.85	-81.44875	-80.82135	37.03262	37.34758	3.0	None	None	None	None	None	None	VA	None	Catchment outlet location	05050002	577.6
323.0	13337000	LOCHSA RIVER NR LOWELL, ID	46.1506	-115.5864	-115.7448	-114.30085	46.11194	46.75601	3.0	None	None	None	None	None	None	ID	None	Catchment outlet location	17060303	3056.2
324.0	12413000	N FK COEUR D ALENE RIVER AT ENAVILLE ID	47.5722	-116.2528	-116.62382	-115.67147	47.49922	48.08913	3.0	None	None	None	None	None	None	ID	None	Catchment outlet location	17010301	2318.1
325.0	05435500	PECATONICA RIVER AT FREEPORT, IL	42.3036	-89.6158	-90.45822	-89.49337	42.24969	43.0479	3.0	None	None	None	None	None	None	IL	None	Catchment outlet location	07090003	3434.3
326.0	06334500	LITTLE MISSOURI R AT CAMP CROOK SD	45.5469	-103.9731	-105.16991	-103.83845	44.51175	45.63074	3.0	None	None	None	None	None	None	SD	None	Catchment outlet location	10110201	5102.3
327.0	10296500	W WALKER R NR COLEVILLE, CA	38.5153	-119.4542	-119.66498	-119.3292	38.1159	38.56	3.0	None	None	None	None	None	None	CA	None	Catchment outlet location	16050302	647.5
328.0	05514500	CUIVRE RIVER NEAR TROY, MO	39.0164	-90.9833	-91.79966	-90.93897	38.80024	39.37349	3.0	None	None	None	None	None	None	MO	None	Catchment outlet location	07110008	2338.8
329.0	13351000	PALOUSE RIVER AT HOOPER, WA	46.7586	-118.1478	-118.16108	-116.42968	46.45356	47.63921	3.0	None	None	None	None	None	None	WA	None	Catchment outlet location	17060108	6475.0
330.0	07067000	CURRENT RIVER AT VAN BUREN, MO	36.9914	-91.0147	-92.02747	-90.93763	36.86531	37.5927	3.0	None	None	None	None	None	None	MO	None	Catchment outlet location	11010008	4317.5
331.0	07057500	NORTH FORK RIVER NEAR TECUMSEH, MO	36.6228	-92.2481	-92.32742	-91.88332	36.58619	37.16361	3.0	None	None	None	None	None	None	MO	None	Catchment outlet location	11010006	1453.0
332.0	11342000	SACRAMENTO R A DELTA CA	40.9397	-122.4161	-122.56452	-122.14541	40.86546	41.43037	3.0	None	None	None	None	None	None	CA	None	Catchment outlet location	18020005	1100.8
333.0	02383500	COOSAWATTEE RIVER NEAR PINE CHAPEL, GA.	34.5642	-84.8331	-84.90657	-84.17084	34.26559	34.89716	3.0	None	None	None	None	None	None	GA	None	Catchment outlet location	03150102	2152.3
334.0	03550000	VALLEY RIVER AT TOMOTLA, N. C.	35.1389	-83.9806	-83.99542	-83.66797	35.10727	35.27641	3.0	None	None	None	None	None	None	NC	None	Catchment outlet location	06020002	269.4
335.0	10309000	EAST FORK CARSON RIVER NEAR GARDNERVILLE, NV	38.8472	-119.7028	-119.94827	-119.525	38.33253	38.88078	3.0	None	None	None	None	None	None	NV	None	Catchment outlet location	16050201	922.0
336.0	02456500	LOCUST FORK AT SAYRE, AL.	33.7097	-86.9833	-87.02706	-86.11219	33.60319	34.29309	3.0	None	None	None	None	None	None	AL	None	Catchment outlet location	03160111	2292.2
337.0	04185000	TIFFIN R AT STRYKER OH	41.5044	-84.4297	-84.60241	-84.13332	41.46108	42.05099	3.0	None	None	None	None	None	None	OH	None	Catchment outlet location	04100006	1061.9
338.0	06811500	LITTLE NEMAHA RIVER AT AUBURN, NE	40.3925	-95.8128	-96.59628	-95.76891	40.30409	40.86067	3.0	None	None	None	None	None	None	NE	None	Catchment outlet location	10240006	2053.9
339.0	11497500	SPRAGUE RIVER NEAR BEATTY,OREG.	42.4472	-121.2375	-121.24806	-120.65398	42.17775	42.67601	3.0	None	None	None	None	None	None	OR	None	Catchment outlet location	18010202	1328.7
340.0	05502040	HADLEY CREEK AT KINDERHOOK, IL	39.6931	-91.1486	-91.17477	-90.88481	39.65427	39.83592	3.0	None	None	None	None	None	None	IL	None	Catchment outlet location	07110004	188.3
341.0	01060000	ROYAL RIVER AT YARMOUTH, ME	43.7992	-70.1792	-70.424	-70.07572	43.76152	44.07648	3.0	None	None	None	None	None	None	ME	None	Catchment outlet location	01060001	365.2
342.0	12358500	MIDDLE FORK FLATHEAD RIVER NEAR WEST GLACIER MT	48.4953	-114.0092	-114.09923	-112.85942	47.88666	48.87234	3.0	None	None	None	None	None	None	MT	None	Catchment outlet location	17010207	2921.5
343.0	01514000	OWEGO CREEK NEAR OWEGO NY	42.1292	-76.2708	-76.3482	-76.09574	42.10267	42.51761	3.0	None	None	None	None	None	None	NY	None	Catchment outlet location	02050103	479.2
344.0	02472000	LEAF RIVER NR COLLINS, MS	31.7069	-89.4069	-89.7195	-89.18375	31.69114	32.38104	3.0	None	None	None	None	None	None	MS	None	Catchment outlet location	03170004	1924.4
345.0	01674500	MATTAPONI RIVER NEAR BEULAHVILLE, VA	37.8878	-77.1633	-77.8563	-77.00809	37.78669	38.33911	3.0	None	None	None	None	None	None	VA	None	Catchment outlet location	02080105	1556.6
346.0	12027500	CHEHALIS RIVER NEAR GRAND MOUND, WASH.	46.7761	-123.0344	-123.49772	-122.40789	46.31191	46.87683	3.0	None	None	None	None	None	None	WA	None	Catchment outlet location	17100103	2318.1
347.0	07058000	BRYANT CREEK NEAR TECUMSEH, MO	36.6258	-92.3044	-92.32742	-91.88332	36.56953	37.16361	3.0	None	None	None	None	None	None	MO	None	Catchment outlet location	11010006	1476.3
348.0	08189500	MISSION RIVER AT REFUGIO, TX	28.2917	-97.2789	-97.98676	-97.23854	28.25002	28.76911	3.0	None	None	None	None	None	None	TX	None	Catchment outlet location	12100406	1787.1
349.0	02448000	NOXUBEE RIVER AT MACON, MS	33.1022	-88.5611	-89.19338	-88.47432	32.8908	33.47238	3.0	None	None	None	None	None	None	MS	None	Catchment outlet location	03160108	1989.1
350.0	01321000	SACANDAGA RIVER NEAR HOPE NY	43.3528	-74.2708	-74.66499	-74.02508	43.18662	43.7182	3.0	None	None	None	None	None	None	NY	None	Catchment outlet location	02020002	1271.7
351.0	03111500	SHORT C NR DILLONVALE OH	40.1933	-80.7344	-81.05298	-80.68804	40.14879	40.3471	3.0	None	None	None	None	None	None	OH	None	Catchment outlet location	05030106	318.6
352.0	04201500	ROCKY R NR BEREA OH	41.4067	-81.8872	-82.01533	-81.63372	41.04865	41.43442	3.0	None	None	None	None	None	None	OH	None	Catchment outlet location	04110001	691.5
353.0	02296750	PEACE RIVER AT ARCADIA, FLA.	27.2219	-81.8761	-82.07785	-81.43378	27.25421	28.2024	3.0	None	None	None	None	None	None	FL	None	Catchment outlet location	03100101	3540.5
354.0	04164000	CLINTON RIVER NEAR FRASER, MICH.               .	42.5772	-82.9514	-83.38435	-82.89442	42.3955	42.90626	3.0	None	None	None	None	None	None	MI	None	Catchment outlet location	04090003	1150.0
355.0	02030500	SLATE RIVER NEAR ARVONIA, VA	37.7028	-78.3778	-78.77282	-78.36204	37.41592	37.73921	3.0	None	None	None	None	None	None	VA	None	Catchment outlet location	02080203	585.3
356.0	03574500	PAINT ROCK RIVER NEAR WOODVILLE AL	34.6242	-86.3064	-86.3992	-86.01342	34.59485	35.1181	3.0	None	None	None	None	None	None	AL	None	Catchment outlet location	06030002	828.8
357.0	02138500	LINVILLE RIVER NEAR NEBO N C	35.7947	-81.8903	-81.98203	-81.79622	35.75702	36.14279	3.0	None	None	None	None	None	None	NC	None	Catchment outlet location	03050101	172.8
358.0	05458500	Cedar River at Janesville, IA	42.6483	-92.465	-93.41191	-92.25126	42.58297	43.96026	3.0	None	None	None	None	None	None	IA	None	Catchment outlet location	07080201	4302.0
359.0	01574000	WEST CONEWAGO CREEK NEAR MANCHESTER, PA.	40.0822	-76.7203	-77.4522	-76.68731	39.67389	40.19715	3.0	None	None	None	None	None	None	PA	None	Catchment outlet location	02050306	1320.9
360.0	05542000	MAZON RIVER NEAR COAL CITY, IL	41.2861	-88.3597	-88.671	-88.12275	40.9124	41.33568	3.0	None	None	None	None	None	None	IL	None	Catchment outlet location	07120005	1178.5
361.0	02143500	INDIAN CREEK NEAR LABORATORY N C	35.4222	-81.2644	-81.50711	-81.24215	35.35708	35.60121	3.0	None	None	None	None	None	None	NC	None	Catchment outlet location	03050102	179.2
362.0	05320500	LE SUEUR RIVER NEAR RAPIDAN, MN	44.1111	-94.0411	-94.17012	-93.30109	43.62864	44.25604	3.0	None	None	None	None	None	None	MN	None	Catchment outlet location	07020011	2874.9
363.0	04198000	SANDUSKY R NR FREMONT OH	41.3078	-83.1589	-83.53591	-82.62106	40.58205	41.33028	3.0	None	None	None	None	None	None	OH	None	Catchment outlet location	04100011	3240.1
364.0	03265000	STILLWATER R AT PLEASANT HILL OH	40.0578	-84.3561	-84.90237	-84.26663	39.91133	40.34293	3.0	None	None	None	None	None	None	OH	None	Catchment outlet location	05080001	1302.8
365.0	03155500	HUGHES RIVER AT CISCO, WV	39.1194	-81.2778	-81.32377	-80.7172	38.98648	39.40975	3.0	None	None	None	None	None	None	WV	None	Catchment outlet location	05030203	1170.7
366.0	02018000	CRAIG CREEK AT PARR, VA	37.6658	-79.9117	-80.55587	-79.87847	37.25345	37.70171	3.0	None	None	None	None	None	None	VA	None	Catchment outlet location	02080201	852.1
367.0	01543500	SINNEMAHONING CREEK AT SINNEMAHONING, PA	41.3172	-78.1033	-78.71032	-78.06626	41.09449	41.71357	3.0	None	None	None	None	None	None	PA	None	Catchment outlet location	02050202	1774.2
368.0	03339500	SUGAR CREEK AT CRAWFORDSVILLE, IND.	40.0489	-86.8994	-86.93537	-86.22049	39.93633	40.29294	3.0	None	None	None	None	None	None	IN	None	Catchment outlet location	05120110	1318.3
369.0	07252000	MULBERRY RIVER NEAR MULBERRY, ARK.	35.5769	-94.0153	-94.09542	-93.38469	35.56152	35.88481	3.0	None	None	None	None	None	None	AR	None	Catchment outlet location	11110201	966.1
370.0	05584500	LA MOINE RIVER AT COLMAR, IL	40.3292	-90.8986	-91.26226	-90.45154	40.20418	40.68578	3.0	None	None	None	None	None	None	IL	None	Catchment outlet location	07130010	1696.5
371.0	05383000	LA CROSSE RIVER NEAR WEST SALEM, WI	43.9014	-91.1181	-91.16227	-90.55569	43.71612	44.14773	3.0	None	None	None	None	None	None	WI	None	Catchment outlet location	07040006	1030.8
372.0	01372500	WAPPINGER CREEK NEAR WAPPINGERS FALLS NY	41.6531	-73.8731	-73.86512	-73.52517	41.68686	42.03514	3.0	None	None	None	None	None	None	NY	None	Catchment outlet location	02020008	468.8
373.0	03136000	MOHICAN R AT GREER OH	40.5147	-82.1956	-82.75271	-82.02948	40.39875	41.03032	3.0	None	None	None	None	None	None	OH	None	Catchment outlet location	05040002	2455.3
374.0	03238500	WHITEOAK C NR GEORGETOWN OH	38.8581	-83.9286	-84.01084	-83.62507	38.89899	39.24311	3.0	None	None	None	None	None	None	OH	None	Catchment outlet location	05090201	564.6
375.0	03473000	S F HOLSTON RIVER NEAR DAMASCUS, VA	36.6517	-81.8442	-82.00407	-81.31418	36.44038	36.8345	3.0	None	None	None	None	None	None	VA	None	Catchment outlet location	06010102	779.6
376.0	02143040	JACOB FORK AT RAMSEY, N. C.	35.5906	-81.5672	-81.70707	-81.53376	35.54455	35.65121	3.0	None	None	None	None	None	None	NC	None	Catchment outlet location	03050102	66.6
377.0	03281500	SOUTH FORK KENTUCKY RIVER AT BOONEVILLE,KENTUCKY	37.4792	-83.6772	-83.95668	-83.42093	36.87432	37.53088	3.0	None	None	None	None	None	None	KY	None	Catchment outlet location	05100203	1870.0
378.0	03346000	NORTH FORK EMBARRAS RIVER NEAR OBLONG, IL	39.0103	-87.9464	-88.06019	-87.75773	38.92815	39.55973	3.0	None	None	None	None	None	None	IL	None	Catchment outlet location	05120112	823.6
379.0	11138500	SISQUOC RIVER NEAR SISQUOC, CALIF.	34.8397	-120.1672	-120.18573	-119.59582	34.67062	34.96891	3.0	None	None	None	None	None	None	CA	None	Catchment outlet location	18060008	727.8
380.0	02228000	SATILLA RIVER AT ATKINSON, GA.	31.2211	-81.8675	-83.24016	-81.83788	31.03277	31.88098	3.0	None	None	None	None	None	None	GA	None	Catchment outlet location	03070201	7226.1
381.0	06914000	POTTAWATOMIE C NR GARNETT, KS	38.3336	-95.2486	-95.60478	-95.19817	38.06694	38.49855	3.0	None	None	None	None	None	None	KS	None	Catchment outlet location	10290101	865.1
382.0	03180500	GREENBRIER RIVER AT DURBIN, WV	38.5436	-79.8333	-79.87817	-79.54655	38.4199	38.75152	3.0	None	None	None	None	None	None	WV	None	Catchment outlet location	05050003	344.5
383.0	03199000	LITTLE COAL RIVER AT DANVILLE, WV	38.0797	-81.8364	-81.957	-81.4879	37.74501	38.10996	3.0	None	None	None	None	None	None	WV	None	Catchment outlet location	05050009	696.7
384.0	01541000	WEST BRANCH SUSQUEHANNA RIVER AT BOWER, PA	40.8969	-78.6772	-78.93113	-78.58701	40.47793	40.97619	3.0	None	None	None	None	None	None	PA	None	Catchment outlet location	02050201	815.9
385.0	01672500	SOUTH ANNA RIVER NEAR ASHLAND, VA	37.7967	-77.5492	-78.30622	-77.49551	37.67838	38.1933	3.0	None	None	None	None	None	None	VA	None	Catchment outlet location	02080106	1020.5
386.0	07029500	HATCHIE RIVER AT BOLIVAR, TN	35.2753	-88.9767	-89.18626	-88.36721	34.52819	35.42222	3.0	None	None	None	None	None	None	TN	None	Catchment outlet location	08010208	3833.2
387.0	12134500	SKYKOMISH RIVER NEAR GOLD BAR, WASH.	47.8375	-121.6656	-121.71468	-121.04561	47.52005	48.00581	3.0	None	None	None	None	None	None	WA	None	Catchment outlet location	17110009	1385.7
388.0	06817000	Nodaway River at Clarinda, IA	40.7386	-95.0131	-95.11319	-94.41913	40.71652	41.50223	3.0	None	None	None	None	None	None	IA	None	Catchment outlet location	10240009	1973.6
389.0	03186500	WILLIAMS RIVER AT DYER, WV	38.3789	-80.4842	-80.51973	-80.11313	38.18244	38.42657	3.0	None	None	None	None	None	None	WV	None	Catchment outlet location	05050005	331.5
390.0	07261000	CADRON CREEK NEAR GUY, ARK.	35.2989	-92.4028	-92.47068	-92.02657	35.26574	35.5307	3.0	None	None	None	None	None	None	AR	None	Catchment outlet location	11110205	437.7
391.0	05447500	GREEN RIVER NEAR GENESEO, IL	41.4889	-90.1583	-90.24575	-88.90596	41.20403	41.88975	3.0	None	None	None	None	None	None	IL	None	Catchment outlet location	07090007	2597.8
392.0	12098500	WHITE RIVER NEAR BUCKLEY, WASH.	47.1514	-121.9486	-121.93547	-121.35389	46.82433	47.25593	3.0	None	None	None	None	None	None	WA	None	Catchment outlet location	17110014	1038.6
393.0	06892000	STRANGER C NR TONGANOXIE, KS	39.1164	-95.0108	-95.45063	-94.91488	39.06678	39.6192	3.0	None	None	None	None	None	None	KS	None	Catchment outlet location	10270104	1051.5
394.0	11210500	KAWEAH R NR THREE RIVERS CA	36.4067	-118.9533	-118.99426	-118.50433	36.26619	36.75196	3.0	None	None	None	None	None	None	CA	None	Catchment outlet location	18030007	1344.2
395.0	07072000	ELEVENPOINT RIVER NR RAVENDEN SPRINGS, ARK.	36.3467	-91.1133	-92.01497	-91.03345	36.31957	37.05113	3.0	None	None	None	None	None	None	AR	None	Catchment outlet location	11010011	2937.1
396.0	06359500	MOREAU R NEAR FAITH SD	45.1978	-102.1561	-104.02426	-102.11789	44.92001	45.60158	3.0	None	None	None	None	None	None	SD	None	Catchment outlet location	10130306	6889.4
397.0	07346050	LITTLE CYPRESS CREEK NR ORE CITY, TX	32.6725	-94.7508	-95.23529	-94.75785	32.57017	33.02677	3.0	None	None	None	None	None	None	TX	None	Catchment outlet location	11140307	992.0
398.0	11025500	SANTA YSABEL CREEK NEAR RAMONA, CALIF.	33.1069	-116.8653	-116.90708	-116.56297	33.05421	33.26501	3.0	None	None	None	None	None	None	CA	None	Catchment outlet location	18070304	290.1
399.0	05457700	Cedar River at Charles City, IA	43.0625	-92.6731	-93.41191	-92.59703	43.00374	43.96026	3.0	None	None	None	None	None	None	IA	None	Catchment outlet location	07080201	2729.9
400.0	05280000	CROW RIVER AT ROCKFORD, MN	45.0867	-93.7339	-95.30327	-93.56771	44.63264	45.72664	3.0	None	None	None	None	None	None	MN	None	Catchment outlet location	07010204	6526.8
401.0	01048000	SANDY RIVER NEAR MERCER, ME	44.7072	-69.9392	-70.61147	-69.91324	44.46141	45.04299	3.0	None	None	None	None	None	None	ME	None	Catchment outlet location	01030003	1336.4
402.0	03173000	WALKER CREEK AT BANE, VA	37.2681	-80.7097	-81.29045	-80.63388	37.00346	37.32675	3.0	None	None	None	None	None	None	VA	None	Catchment outlet location	05050002	790.0
403.0	01445500	PEQUEST RIVER AT PEQUEST NJ	40.8306	-74.9786	-74.94426	-74.52516	40.73622	41.04284	3.0	None	None	None	None	None	None	NJ	None	Catchment outlet location	02040105	274.5
404.0	07074000	STRAWBERRY RIVER NEAR POUGHKEEPSIE, ARK.	36.1103	-91.4497	-92.0233	-91.41673	35.97379	36.3929	3.0	None	None	None	None	None	None	AR	None	Catchment outlet location	11010012	1225.1
405.0	05546500	FOX RIVER AT WILMOT, WI	42.5111	-88.1792	-88.70433	-88.03943	42.46215	43.20621	3.0	None	None	None	None	None	None	WI	None	Catchment outlet location	07120006	2248.1
406.0	07375500	TANGIPAHOA RIVER AT ROBERT,LA	30.5064	-90.3617	-90.63603	-90.25858	30.483	31.40203	3.0	None	None	None	None	None	None	LA	None	Catchment outlet location	08070205	1673.1
407.0	01534000	TUNKHANNOCK CREEK NEAR TUNKHANNOCK, PA.	41.5583	-75.895	-75.93161	-75.47084	41.46111	41.89687	3.0	None	None	None	None	None	None	PA	None	Catchment outlet location	02050106	992.0
408.0	07049000	WAR EAGLE CREEK NEAR HINDSVILLE, ARK.	36.2006	-93.8556	-93.88134	-93.54972	35.80299	36.28041	3.0	None	None	None	None	None	None	AR	None	Catchment outlet location	11010001	681.2
409.0	02118000	SOUTH YADKIN RIVER NEAR MOCKSVILLE N C	35.8447	-80.6594	-81.19049	-80.63391	35.78201	36.09697	3.0	None	None	None	None	None	None	NC	None	Catchment outlet location	03040102	792.5
410.0	03438000	LITTLE R NR CADIZ,KY.	36.7778	-87.7217	-87.82273	-87.26198	36.64935	36.98097	3.0	None	None	None	None	None	None	KY	None	Catchment outlet location	05130205	632.0
411.0	02329000	OCHLOCKONEE RIVER NR HAVANA, FLA.	30.5539	-84.3842	-84.48996	-83.7584	30.43287	31.50187	3.0	None	None	None	None	None	None	FL	None	Catchment outlet location	03120003	2952.6
412.0	02016000	COWPASTURE RIVER NEAR CLIFTON FORGE, VA	37.7917	-79.7597	-79.82682	-79.28689	37.72004	38.47659	3.0	None	None	None	None	None	None	VA	None	Catchment outlet location	02080201	1194.0
413.0	01445000	PEQUEST RIVER AT HUNTSVILLE NJ	40.9811	-74.7767	-74.86094	-74.66263	40.92786	41.05951	3.0	None	None	None	None	None	None	NJ	None	Catchment outlet location	02040105	80.3
414.0	06883000	LITTLE BLUE RIVER NEAR DEWEESE, NE	40.3328	-98.0667	-99.16254	-98.03105	40.18327	40.70653	3.0	None	None	None	None	None	None	NE	None	Catchment outlet location	10270206	2548.6
415.0	06225500	WIND RIVER NEAR CROWHEART, WYO.	43.2425	-109.0097	-110.10246	-108.98763	42.91616	43.981	3.0	None	None	None	None	None	None	WY	None	Catchment outlet location	10080001	4897.7
416.0	07197000	BARON FORK AT ELDON, OK	35.9211	-94.8383	-94.81613	-94.33454	35.71566	36.12227	3.0	None	None	None	None	None	None	OK	None	Catchment outlet location	11110103	795.1
417.0	07222500	CONCHAS RIVER AT VARIADERO, N. MEX.	35.4028	-104.4431	-105.03116	-104.34543	35.21158	35.69734	3.0	None	None	None	None	None	None	NM	None	Catchment outlet location	11080005	1354.6
418.0	02058400	PIGG RIVER NEAR SANDY LEVEL, VA	36.9458	-79.525	-80.16149	-79.48826	36.75269	37.04265	3.0	None	None	None	None	None	None	VA	None	Catchment outlet location	03010101	906.5
419.0	11530000	TRINITY R A HOOPA CA	41.05	-123.6708	-123.78932	-122.42453	40.10725	41.38455	3.0	None	None	None	None	None	None	CA	None	Catchment outlet location	18010211	7389.3
420.0	07147070	WHITEWATER R AT TOWANDA, KS	37.7958	-97.0125	-97.31156	-96.84664	37.7445	38.15945	3.0	None	None	None	None	None	None	KS	None	Catchment outlet location	11030017	1103.3
421.0	11281000	SF TUOLUMNE RIVER NR OAKLAND RECREATION CAMP CAL	37.8217	-120.0119	-120.04409	-119.62915	37.73679	37.87678	3.0	None	None	None	None	None	None	CA	None	Catchment outlet location	18040009	225.3
422.0	03326500	MISSISSINEWA RIVER AT MARION, IND.	40.5761	-85.6594	-85.74807	-84.6499	40.06547	40.67622	3.0	None	None	None	None	None	None	IN	None	Catchment outlet location	05120103	1766.4
423.0	02217500	MIDDLE OCONEE RIVER NEAR ATHENS, GA.	33.9467	-83.4228	-83.96088	-83.38763	33.91148	34.31808	3.0	None	None	None	None	None	None	GA	None	Catchment outlet location	03070101	1015.3
424.0	13340500	N FK CLEARWATER RIVER AT BUNGALOW RANGER STA ID	46.6314	-115.5078	-115.7573	-114.74245	46.39106	47.03514	3.0	None	None	None	None	None	None	ID	None	Catchment outlet location	17060307	2579.6
425.0	09132500	NORTH FORK GUNNISON RIVER NEAR SOMERSET, CO.	38.9258	-107.4336	-107.7155	-107.05477	38.67834	39.27658	3.0	None	None	None	None	None	None	CO	None	Catchment outlet location	14020004	1362.3
426.0	05517000	YELLOW RIVER AT KNOX, IND.	41.3028	-86.6206	-86.5755	-85.87311	41.13737	41.59813	3.0	None	None	None	None	None	None	IN	None	Catchment outlet location	07120001	1126.7
427.0	07378000	COMITE RIVER NEAR COMITE, LA.	30.5125	-91.0736	-91.24009	-90.9293	30.56216	31.11041	3.0	None	None	None	None	None	None	LA	None	Catchment outlet location	08070202	735.6
428.0	03348000	WHITE RIVER AT ANDERSON, IND.	40.1061	-85.6722	-85.7064	-84.88736	39.96132	40.25961	3.0	None	None	None	None	None	None	IN	None	Catchment outlet location	05120201	1051.5
429.0	07144780	NF NINNESCAH R AB CHENEY RE, KS	37.8447	-97.9358	-98.95297	-97.87564	37.66952	38.0178	3.0	None	None	None	None	None	None	KS	None	Catchment outlet location	11030014	2038.3
430.0	05053000	WILD RICE RIVER NR ABERCROMBIE, ND	46.4681	-96.7833	-98.0445	-96.61722	45.72413	46.53068	3.0	None	None	None	None	None	None	ND	None	Catchment outlet location	09020105	5387.2
431.0	07152000	CHIKASKIA RIVER NEAR BLACKWELL, OK	36.8114	-97.2769	-98.81133	-97.10909	36.76966	37.6137	3.0	None	None	None	None	None	None	OK	None	Catchment outlet location	11060005	4814.8
